city,county,pop,ZIP,LAT,LNG,gundo_lat,gundo_long,Est_Dist_from_Home (Miles)
Los Angeles,Los Angeles,111165,90011,34.00709,-118.258681,33.92735,-118.41591,10.57206531
Pacoima,Los Angeles,105458,91331,34.255442,-118.421314,33.92735,-118.41591,22.69538107
Norwalk,Los Angeles,105304,90650,33.906956,-118.08264,33.92735,-118.41591,19.18104133
Bell,Los Angeles,101965,90201,33.970343,-118.171368,33.92735,-118.41591,14.34271328
Los Angeles,Los Angeles,99443,90044,33.952725,-118.291904,33.92735,-118.41591,7.329069099
Fontana,San Bernardino,99306,92335,34.085972,-117.464597,33.92735,-118.41591,55.63849767
Fontana,San Bernardino,98346,92336,34.147718,-117.464506,33.92735,-118.41591,56.62152637
Pittsburg,Contra Costa,97671,94565,38.014576,-121.906255,33.92735,-118.41591,343.583487
Hawthorne,Los Angeles,97072,90250,33.914775,-118.348083,33.92735,-118.41591,3.988952893
Long Beach,Los Angeles,95995,90805,33.864617,-118.180567,33.92735,-118.41591,14.19125042
Riverside,Riverside,95551,92503,33.882579,-117.442303,33.92735,-118.41591,55.97682818
South Gate,Los Angeles,94642,90280,33.944159,-118.192761,33.92735,-118.41591,12.85823042
Sylmar,Los Angeles,94595,91342,34.326584,-118.382261,33.92735,-118.41591,27.68110505
Chino,San Bernardino,91773,91710,34.004468,-117.684697,33.92735,-118.41591,42.28400151
Westminster,Orange,91105,92683,33.752468,-117.993933,33.92735,-118.41591,27.09283351
Anaheim,Orange,89915,92804,33.818246,-117.974985,33.92735,-118.41591,26.42205327
San Diego,San Diego,88979,92154,32.557022,-117.006214,33.92735,-118.41591,125.0324202
Santa Ana,Orange,88321,92704,33.721131,-117.90511,33.92735,-118.41591,32.63319719
Watsonville,Santa Cruz,86905,95076,36.946256,-121.756479,33.92735,-118.41591,281.1012476
Bakersfield,Kern,86832,93307,35.24512,-118.9411,33.92735,-118.41591,95.92710665
Rialto,San Bernardino,86085,92376,34.111605,-117.377406,33.92735,-118.41591,60.88507844
La Puente,Los Angeles,85421,91744,34.031415,-117.93647,33.92735,-118.41591,28.42529429
Temecula,Riverside,84930,92592,33.511228,-117.042396,33.92735,-118.41591,84.09752085
San Francisco,San Francisco,84707,94112,37.720375,-122.44295,33.92735,-118.41591,346.0936139
Oxnard,Ventura,84701,93033,34.150212,-119.127729,33.92735,-118.41591,43.61354772
Fresno,Fresno,84621,93722,36.799361,-119.874794,33.92735,-118.41591,215.0105503
Fresno,Fresno,84449,93727,36.751519,-119.680602,33.92735,-118.41591,207.9593108
Chula Vista,San Diego,84026,91911,32.608185,-117.054512,33.92735,-118.41591,120.5130235
San Diego,San Diego,82658,92126,32.908449,-117.14138,33.92735,-118.41591,101.884964
Hesperia,San Bernardino,82110,92345,34.376159,-117.294397,33.92735,-118.41591,71.30626838
Reseda,Los Angeles,81824,91335,34.200175,-118.540958,33.92735,-118.41591,20.1851104
Riverside,Riverside,81383,92509,34.003266,-117.442004,33.92735,-118.41591,56.11487373
Chino Hills,San Bernardino,80701,91709,33.963723,-117.738596,33.92735,-118.41591,38.94494932
Hayward,Alameda,79747,94544,37.63382,-122.0572,33.92735,-118.41591,327.7650376
Milpitas,Santa Clara,79655,95035,37.444349,-121.868859,33.92735,-118.41591,311.0830223
Sacramento,Sacramento,79440,95823,38.474099,-121.443454,33.92735,-118.41591,356.9529552
Folsom,Sacramento,78159,95630,38.666597,-121.141635,33.92735,-118.41591,361.2563049
Palmdale,Los Angeles,77506,93550,34.408548,-118.123592,33.92735,-118.41591,37.25087169
Bellflower,Los Angeles,77195,90706,33.887821,-118.12725,33.92735,-118.41591,16.79447921
Baldwin Park,Los Angeles,76930,91706,34.09741,-117.968269,33.92735,-118.41591,28.23210586
Porterville,Tulare,76519,93257,35.988087,-118.860221,33.92735,-118.41591,144.7434859
Moreno Valley,Riverside,76102,92553,33.923381,-117.244837,33.92735,-118.41591,67.21124439
Fairfield,Solano,75909,94533,38.280745,-122.00638,33.92735,-118.41591,361.7652031
Huntington Park,Los Angeles,75019,90255,33.979248,-118.217438,33.92735,-118.41591,11.93950427
Chula Vista,San Diego,74855,91910,32.637868,-117.058031,33.92735,-118.41591,118.8228641
Fremont,Alameda,74837,94536,37.570508,-121.98125,33.92735,-118.41591,321.7380998
Union City,Alameda,74722,94587,37.603155,-122.018638,33.92735,-118.41591,324.7840897
Anaheim,Orange,74478,92805,33.830457,-117.905941,33.92735,-118.41591,30.04149949
Lancaster,Los Angeles,74264,93535,34.713656,-117.86466,33.92735,-118.41591,62.84514143
Tulare,Tulare,74000,93274,36.178091,-119.370752,33.92735,-118.41591,164.7959193
Los Angeles,Los Angeles,73730,90003,33.964131,-118.272783,33.92735,-118.41591,8.597499037
San Diego,San Diego,73623,92105,32.737827,-117.092673,33.92735,-118.41591,112.322101
Corona,Riverside,73250,92882,33.840451,-117.601961,33.92735,-118.41591,47.12223531
Rancho Cucamonga,San Bernardino,72407,91730,34.10097,-117.57882,33.92735,-118.41591,49.47218213
San Francisco,San Francisco,72380,94110,37.750021,-122.415201,33.92735,-118.41591,346.6146539
Pomona,Los Angeles,72348,91766,34.042286,-117.756106,33.92735,-118.41591,38.66745113
Bakersfield,Kern,72280,93306,35.468183,-118.779649,33.92735,-118.41591,108.5638744
Panorama City,Los Angeles,72059,91402,34.222506,-118.444689,33.92735,-118.41591,20.48164535
Simi Valley,Ventura,71832,93065,34.258405,-118.775026,33.92735,-118.41591,30.78068668
Lynwood,Los Angeles,70536,90262,33.923533,-118.200705,33.92735,-118.41591,12.35400533
Lancaster,Los Angeles,70237,93536,34.74739,-118.369249,33.92735,-118.41591,56.78260295
El Cajon,San Diego,70148,92021,32.838798,-116.869956,33.92735,-118.41591,116.7923949
Corona,Riverside,69656,92880,33.925311,-117.607297,33.92735,-118.41591,46.40805661
Murrieta,Riverside,69469,92563,33.580016,-117.14736,33.92735,-118.41591,76.80520674
Santa Ana,Orange,69112,92703,33.747155,-117.907326,33.92735,-118.41591,31.76630796
La Habra,Orange,69064,90631,33.942708,-117.952483,33.92735,-118.41591,26.61549611
Vacaville,Solano,69060,95687,38.333133,-121.920151,33.92735,-118.41591,362.1255041
Los Angeles,Los Angeles,68906,90026,34.080017,-118.262643,33.92735,-118.41591,13.73823211
San Diego,San Diego,68851,92114,32.707756,-117.055095,33.92735,-118.41591,115.3331839
San Jose,Santa Clara,68766,95123,37.244238,-121.831604,33.92735,-118.41591,299.1972348
San Bernardino,San Bernardino,68545,92407,34.212433,-117.381239,33.92735,-118.41591,62.47464743
Napa,Napa,68315,94558,38.442011,-122.23832,33.92735,-118.41591,378.1260064
Antioch,Contra Costa,68166,94509,37.996501,-121.812301,33.92735,-118.41591,339.5998408
Los Angeles,Los Angeles,67640,90037,34.002719,-118.287487,33.92735,-118.41591,9.024990451
Hanford,Kings,67605,93230,36.29223,-119.622676,33.92735,-118.41591,177.2475713
South San Francisco,San Mateo,67600,94080,37.65549,-122.422075,33.92735,-118.41591,341.99735
Fremont,Alameda,67474,94538,37.501368,-121.956753,33.92735,-118.41591,317.1999383
Los Angeles,Los Angeles,67014,90022,34.023728,-118.156275,33.92735,-118.41591,16.31627867
Roseville,Placer,66931,95747,38.78207,-121.373155,33.92735,-118.41591,373.959852
North Hills,Los Angeles,66743,91343,34.237912,-118.482306,33.92735,-118.41591,21.81491578
Anaheim,Orange,66594,92801,33.844983,-117.952151,33.92735,-118.41591,27.23121905
Laguna Niguel,Orange,66314,92677,33.528868,-117.701175,33.92735,-118.41591,49.49857415
San Jose,Santa Clara,66256,95127,37.371091,-121.800752,33.92735,-118.41591,304.7935985
Elk Grove,Sacramento,65948,95624,38.427507,-121.314899,33.92735,-118.41591,350.778115
Hayward,Alameda,65928,94541,37.673945,-122.084821,33.92735,-118.41591,330.8677143
Elk Grove,Sacramento,65811,95758,38.427813,-121.444696,33.92735,-118.41591,354.193616
Indio,Riverside,65726,92201,33.710984,-116.204844,33.92735,-118.41591,127.9327677
Daly City,San Mateo,65041,94015,37.681264,-122.480589,33.92735,-118.41591,345.4736495
Gilroy,Santa Clara,64833,95020,37.018419,-121.554249,33.92735,-118.41591,277.381443
Spring Valley,San Diego,64750,91977,32.726237,-116.994318,33.92735,-118.41591,116.838234
Los Angeles,Los Angeles,64534,90019,34.049841,-118.33846,33.92735,-118.41591,9.566113407
Salinas,Monterey,64348,93906,36.722714,-121.633649,33.92735,-118.41591,265.2121374
San Diego,San Diego,64343,92115,32.764998,-117.073641,33.92735,-118.41591,111.7053182
Brentwood,Contra Costa,64313,94513,37.922228,-121.668359,33.92735,-118.41591,330.9068392
San Pablo,Contra Costa,64286,94806,37.98079,-122.337627,33.92735,-118.41591,356.0351265
Murrieta,Riverside,64286,92562,33.547613,-117.34404,33.92735,-118.41591,67.01404647
Stockton,San Joaquin,64250,95206,37.918854,-121.417427,33.92735,-118.41591,323.1939853
Highland,San Bernardino,63857,92346,34.126779,-117.183104,33.92735,-118.41591,72.00262776
Alameda,Alameda,63821,94501,37.773793,-122.278115,33.92735,-118.41591,342.9505487
Los Angeles,Los Angeles,63193,90042,34.114708,-118.192098,33.92735,-118.41591,18.23635573
Costa Mesa,Orange,63161,92627,33.647763,-117.919761,33.92735,-118.41591,34.45911047
Pico Rivera,Los Angeles,63001,90660,33.989524,-118.089299,33.92735,-118.41591,19.22494847
San Bernardino,San Bernardino,62915,92404,34.177083,-117.254763,33.92735,-118.41591,68.74691879
El Monte,Los Angeles,62905,91732,34.07342,-118.015345,33.92735,-118.41591,25.09304856
National City,San Diego,62859,91950,32.670646,-117.094668,33.92735,-118.41591,115.7121447
Montebello,Los Angeles,62730,90640,34.015444,-118.111012,33.92735,-118.41591,18.52048358
Rosemead,Los Angeles,62703,91770,34.065493,-118.084529,33.92735,-118.41591,21.26993479
Carmichael,Sacramento,62539,95608,38.62415,-121.324911,33.92735,-118.41591,363.0550666
San Jose,Santa Clara,62228,95112,37.344482,-121.883535,33.92735,-118.41591,306.3154331
Huntington Beach,Orange,62199,92647,33.723228,-118.008692,33.92735,-118.41591,27.3282753
San Francisco,San Francisco,62128,94122,37.758797,-122.485128,33.92735,-118.41591,349.6123449
Azusa,Los Angeles,62066,91702,34.280333,-117.866141,33.92735,-118.41591,39.84314206
Cupertino,Santa Clara,61866,95014,37.306491,-122.08064,33.92735,-118.41591,311.5333273
San Jose,Santa Clara,61830,95111,37.283111,-121.826245,33.92735,-118.41591,301.0411738
Ontario,San Bernardino,61718,91762,34.05941,-117.674011,33.92735,-118.41591,43.51493584
Bakersfield,Kern,61628,93312,35.393478,-119.12046,33.92735,-118.41591,109.0418515
Ontario,San Bernardino,61425,91761,34.035602,-117.591528,33.92735,-118.41591,47.87136387
Santa Ana,Orange,60831,92707,33.709935,-117.870431,33.92735,-118.41591,34.76620756
Perris,Riverside,60686,92570,33.787292,-117.320673,33.92735,-118.41591,63.64997602
San Pedro,Los Angeles,60659,90731,33.731442,-118.278869,33.92735,-118.41591,15.6720895
Los Angeles,Los Angeles,60541,90004,34.076198,-118.310722,33.92735,-118.41591,11.93214334
Salinas,Monterey,60531,93905,36.682351,-121.605904,33.92735,-118.41591,262.1384093
Oceanside,San Diego,60414,92057,33.254619,-117.283341,33.92735,-118.41591,80.14505685
Colton,San Bernardino,59972,92324,34.02452,-117.289255,33.92735,-118.41591,64.97158594
Riverside,Riverside,59896,92504,33.903134,-117.398044,33.92735,-118.41591,58.44878981
Santa Clara,Santa Clara,59851,95051,37.34864,-121.984373,33.92735,-118.41591,310.1660053
Los Angeles,Los Angeles,59832,90001,33.974027,-118.249509,33.92735,-118.41591,10.07846742
El Cajon,San Diego,59743,92020,32.795508,-116.969747,33.92735,-118.41591,114.4895688
Modesto,Stanislaus,59621,95355,37.672906,-120.946594,33.92735,-118.41591,295.3864595
Los Angeles,Los Angeles,59576,90006,34.048041,-118.294177,33.92735,-118.41591,10.88246369
Tustin,Orange,59499,92780,33.734005,-117.819163,33.92735,-118.41591,36.8025898
Lake Forest,Orange,59403,92630,33.645736,-117.685503,33.92735,-118.41591,46.28615133
Visalia,Tulare,59270,93291,36.391777,-119.372842,33.92735,-118.41591,178.8377708
Los Angeles,Los Angeles,59167,90066,34.002028,-118.430656,33.92735,-118.41591,5.234093221
Riverside,Riverside,59152,92507,33.970847,-117.32512,33.92735,-118.41591,62.65791531
Sacramento,Sacramento,58717,95828,38.488809,-121.395843,33.92735,-118.41591,356.5967855
Goleta,Santa Barbara,58546,93117,34.479453,-120.084094,33.92735,-118.41591,102.7833328
Bakersfield,Kern,58538,93309,35.342891,-119.064803,33.92735,-118.41591,104.6411726
Oxnard,Ventura,58422,93030,34.205247,-119.174092,33.92735,-118.41591,47.50423134
San Diego,San Diego,58408,92113,32.696716,-117.117881,33.92735,-118.41591,113.4646634
Victorville,San Bernardino,58393,92392,34.480247,-117.408184,33.92735,-118.41591,69.17733046
Long Beach,Los Angeles,58380,90813,33.782259,-118.196793,33.92735,-118.41591,16.0972944
Lake Elsinore,Riverside,58184,92530,33.649528,-117.376774,33.92735,-118.41591,62.74894199
Santee,San Diego,57710,92071,32.852358,-116.987842,33.92735,-118.41591,111.0391777
Perris,Riverside,57622,92571,33.828396,-117.20766,33.92735,-118.41591,69.71972559
San Francisco,San Francisco,57302,94109,37.795388,-122.422453,33.92735,-118.41591,349.2322959
Santa Maria,Santa Barbara,57256,93458,34.95934,-120.490081,33.92735,-118.41591,138.1731227
San Diego,San Diego,56983,92117,32.824572,-117.199518,33.92735,-118.41591,103.7015061
Fountain Valley,Orange,56953,92708,33.710582,-117.951129,33.92735,-118.41591,30.62889356
Carson,Los Angeles,56930,90745,33.822725,-118.264109,33.92735,-118.41591,11.3297039
Wilmington,Los Angeles,56880,90744,33.779284,-118.261723,33.92735,-118.41591,13.53978688
Escondido,San Diego,56788,92027,33.131156,-116.976997,33.92735,-118.41591,99.5772469
Ontario,San Bernardino,56677,91764,34.074087,-117.605618,33.92735,-118.41591,47.55911533
Sunnyvale,Santa Clara,56668,94087,37.351529,-122.036959,33.92735,-118.41591,312.2331107
Simi Valley,Ventura,56458,93063,34.308729,-118.687223,33.92735,-118.41591,30.61402891
Lompoc,Santa Barbara,56323,93436,34.595669,-120.352667,33.92735,-118.41591,119.9749208
San Diego,San Diego,56134,92130,32.945791,-117.214366,33.92735,-118.41591,97.05064615
San Jose,Santa Clara,56121,95122,37.328684,-121.835269,33.92735,-118.41591,303.7629613
Huntington Beach,Orange,55870,92646,33.66205,-117.968459,33.92735,-118.41591,31.59475001
San Jose,Santa Clara,55825,95116,37.350421,-121.852585,33.92735,-118.41591,305.5257638
Tracy,San Joaquin,55655,95376,37.737191,-121.433384,33.92735,-118.41591,313.118924
Dublin,Alameda,55608,94568,37.715245,-121.9147,33.92735,-118.41591,327.2739175
Beaumont,Riverside,55580,92223,33.948255,-116.987839,33.92735,-118.41591,81.96098371
Rancho Cordova,Sacramento,55558,95670,38.604268,-121.280327,33.92735,-118.41591,360.7286207
Van Nuys,Los Angeles,55506,91405,34.199824,-118.447609,33.92735,-118.41591,18.93364055
Bakersfield,Kern,55221,93313,35.16319,-119.046322,33.92735,-118.41591,92.71790766
Hacienda Heights,Los Angeles,55202,91745,33.999005,-117.972146,33.92735,-118.41591,25.93544317
Vallejo,Solano,55157,94591,38.122869,-122.196863,33.92735,-118.41591,359.0116544
Santa Ana,Orange,55058,92701,33.74822,-117.858473,33.92735,-118.41591,34.33875794
Fremont,Alameda,54982,94539,37.516907,-121.911763,33.92735,-118.41591,316.4539797
Delano,Kern,54958,93215,35.779507,-119.200825,33.92735,-118.41591,135.6329824
Van Nuys,Los Angeles,54890,91406,34.195685,-118.490752,33.92735,-118.41591,19.04904379
Alhambra,Los Angeles,54768,91801,34.090728,-118.127527,33.92735,-118.41591,20.02745404
San Diego,San Diego,54762,92129,32.96692,-117.126158,33.92735,-118.41591,99.76599459
Garden Grove,Orange,54735,92840,33.787165,-117.931889,33.92735,-118.41591,29.44377841
Paramount,Los Angeles,54513,90723,33.898883,-118.166629,33.92735,-118.41591,14.44380043
Canoga Park,Los Angeles,54361,91304,34.224196,-118.632394,33.92735,-118.41591,23.98728554
Cathedral City,Riverside,54357,92234,33.818256,-116.466743,33.92735,-118.41591,112.1892802
Yucaipa,San Bernardino,54268,92399,34.032301,-117.010574,33.92735,-118.41591,80.92999761
Menifee,Riverside,54235,92584,33.652675,-117.173568,33.92735,-118.41591,73.89780886
Modesto,Stanislaus,54210,95350,37.671978,-121.007405,33.92735,-118.41591,296.9838942
Chula Vista,San Diego,54114,91913,32.619459,-116.98582,33.92735,-118.41591,122.5645322
Bakersfield,Kern,53981,93308,35.621087,-118.789677,33.92735,-118.41591,119.0600988
Los Angeles,Los Angeles,53980,90063,34.045105,-118.185914,33.92735,-118.41591,15.5026133
Los Angeles,Los Angeles,53861,90034,34.030578,-118.399613,33.92735,-118.41591,7.200938296
Upland,San Bernardino,53697,91786,34.105282,-117.662035,33.92735,-118.41591,44.93861767
Granada Hills,Los Angeles,53613,91344,34.294615,-118.507001,33.92735,-118.41591,25.93284614
Placentia,Orange,53600,92870,33.881158,-117.854783,33.92735,-118.41591,32.3705923
Los Angeles,Los Angeles,53490,90018,34.028887,-118.317183,33.92735,-118.41591,9.021605305
Hollister,San Benito,53423,95023,36.902045,-121.350783,33.92735,-118.41591,263.9817173
Moreno Valley,Riverside,53406,92557,33.97216,-117.258409,33.92735,-118.41591,66.48501434
Los Angeles,Los Angeles,53302,90002,33.949099,-118.246737,33.92735,-118.41591,9.82369223
Riverside,Riverside,53282,92505,33.936193,-117.493881,33.92735,-118.41591,52.91711628
San Jose,Santa Clara,53155,95125,37.295056,-121.89144,33.92735,-118.41591,304.0107263
North Hollywood,Los Angeles,53113,91605,34.207341,-118.400973,33.92735,-118.41591,19.38515063
Oakland,Alameda,53039,94601,37.775545,-122.218705,33.92735,-118.41591,340.9530365
Escondido,San Diego,52985,92025,33.102005,-117.080419,33.92735,-118.41591,95.86403421
Lincoln,Placer,52949,95648,38.922812,-121.312005,33.92735,-118.41591,381.2086991
Compton,Los Angeles,52817,90220,33.88151,-118.234451,33.92735,-118.41591,10.88881932
Irvine,Orange,52569,92620,33.714796,-117.749139,33.92735,-118.41591,41.03828874
Fullerton,Orange,52435,92833,33.879329,-117.961752,33.92735,-118.41591,26.28279248
Oceanside,San Diego,52337,92056,33.201242,-117.296984,33.92735,-118.41591,81.73754613
Visalia,Tulare,52271,93277,36.301334,-119.372586,33.92735,-118.41591,172.8906606
Stockton,San Joaquin,52269,95207,38.002125,-121.324979,33.92735,-118.41591,325.4633043
Aliso Viejo,Orange,52268,92656,33.576212,-117.730368,33.92735,-118.41591,46.30545216
Davis,Yolo,52212,95616,38.554133,-121.798467,33.92735,-118.41591,371.4405084
Morgan Hill,Santa Clara,51994,95037,37.174063,-121.598747,33.92735,-118.41591,287.2058267
Compton,Los Angeles,51688,90221,33.885624,-118.205918,33.92735,-118.41591,12.39534917
Ventura,Ventura,51629,93003,34.283668,-119.223196,33.92735,-118.41591,52.39247224
Los Angeles,Los Angeles,51627,90024,34.065723,-118.434969,33.92735,-118.41591,9.633101019
Vista,San Diego,51619,92084,33.219935,-117.202606,33.92735,-118.41591,85.33989412
San Jose,Santa Clara,51455,95124,37.256765,-121.922762,33.92735,-118.41591,303.1597721
Los Angeles,Los Angeles,51411,90047,33.953617,-118.308428,33.92735,-118.41591,6.42961658
Encinitas,San Diego,51381,92024,33.056022,-117.2599,33.92735,-118.41591,89.88031398
San Diego,San Diego,51357,92128,32.999818,-117.071808,33.92735,-118.41591,100.650943
Los Angeles,Los Angeles,50900,90046,34.10781,-118.362247,33.92735,-118.41591,12.85550625
Mission Viejo,Orange,50839,92691,33.611945,-117.665867,33.92735,-118.41591,48.329274
Yorba Linda,Orange,50784,92886,33.896339,-117.796416,33.92735,-118.41591,35.62465649
San Diego,San Diego,50693,92111,32.806476,-117.168879,33.92735,-118.41591,105.8270498
Pomona,Los Angeles,50606,91767,34.083086,-117.737997,33.92735,-118.41591,40.33559758
Costa Mesa,Orange,50605,92626,33.679591,-117.908531,33.92735,-118.41591,33.82391516
Palmdale,Los Angeles,50601,93551,34.604105,-118.239213,33.92735,-118.41591,47.88667793
Cerritos,Los Angeles,50589,90703,33.867743,-118.069472,33.92735,-118.41591,20.31231012
San Marcos,San Diego,50510,92078,33.117154,-117.180627,33.92735,-118.41591,90.63023896
Sunnyvale,Santa Clara,50477,94086,37.371647,-122.023134,33.92735,-118.41591,312.768935
El Centro,Imperial,50402,92243,32.770197,-115.59859,33.92735,-118.41591,181.382386
San Marcos,San Diego,50376,92069,33.170775,-117.158676,33.92735,-118.41591,89.39012397
Livermore,Alameda,50374,94550,37.519986,-121.575596,33.92735,-118.41591,305.2864695
Escondido,San Diego,50321,92026,33.212444,-117.116098,33.92735,-118.41591,89.75704837
Los Angeles,Los Angeles,50152,90057,34.061735,-118.276757,33.92735,-118.41591,12.25057113
San Diego,San Diego,49935,92127,33.011833,-117.132686,33.92735,-118.41591,97.42389638
Madera,Madera,49932,93638,37.043434,-120.033693,33.92735,-118.41591,233.987741
Hemet,Riverside,49923,92544,33.648169,-116.895308,33.92735,-118.41591,89.51872196
Poway,San Diego,49805,92064,32.983606,-117.019035,33.92735,-118.41591,103.7233217
Martinez,Contra Costa,49784,94553,37.993892,-122.136441,33.92735,-118.41591,349.9270591
Winnetka,Los Angeles,49678,91306,34.209532,-118.577563,33.92735,-118.41591,21.60393986
La Mirada,Los Angeles,49227,90638,33.902045,-118.008961,33.92735,-118.41591,23.42429578
Cypress,Orange,49205,90630,33.818477,-118.038307,33.92735,-118.41591,22.95530283
Daly City,San Mateo,49170,94014,37.690884,-122.447441,33.92735,-118.41591,344.743505
Los Angeles,Los Angeles,49155,90033,34.05038,-118.211991,33.92735,-118.41591,14.46309025
Bakersfield,Kern,49115,93304,35.339702,-119.023451,33.92735,-118.41591,103.6263783
Clovis,Fresno,49053,93611,36.825296,-119.68019,33.92735,-118.41591,212.7407905
Irvine,Orange,48997,92618,33.666942,-117.732094,33.92735,-118.41591,43.23535668
Lodi,San Joaquin,48799,95240,38.114388,-121.144658,33.92735,-118.41591,327.3328015
Modesto,Stanislaus,48542,95351,37.623601,-120.996324,33.92735,-118.41591,293.786291
Gardena,Los Angeles,48293,90247,33.890853,-118.297967,33.92735,-118.41591,7.225674677
San Jose,Santa Clara,48273,95148,37.335987,-121.777603,33.92735,-118.41591,302.1120566
Palo Alto,San Mateo,48244,94303,37.45788,-122.115158,33.92735,-118.41591,320.58603
Fallbrook,San Diego,48173,92028,33.390477,-117.209427,33.92735,-118.41591,78.76154315
San Diego,San Diego,48071,92122,32.861727,-117.171224,33.92735,-118.41591,102.9498361
Los Angeles,Los Angeles,48031,90032,34.078195,-118.185501,33.92735,-118.41591,16.8347729
Corona,Riverside,47872,92879,33.882614,-117.528204,33.92735,-118.41591,51.05373106
Manteca,San Joaquin,47855,95336,37.830267,-121.20102,33.92735,-118.41591,311.78976
Antelope,Sacramento,47823,95843,38.715463,-121.363422,33.92735,-118.41591,369.6206704
Santa Cruz,Santa Cruz,47801,95060,37.036461,-122.12175,33.92735,-118.41591,299.6324936
San Leandro,Alameda,47682,94577,37.713275,-122.16735,33.92735,-118.41591,335.846669
San Jose,Santa Clara,47476,95136,37.269128,-121.850992,33.92735,-118.41591,301.1971853
San Francisco,San Francisco,47346,94116,37.745399,-122.486065,33.92735,-118.41591,348.9578402
Santa Ana,Orange,47298,92705,33.765639,-117.790075,33.92735,-118.41591,37.65126414
Livermore,Alameda,47227,94551,37.750502,-121.749055,33.92735,-118.41591,323.7596285
Newark,Alameda,47171,94560,37.504514,-122.032916,33.92735,-118.41591,320.0614448
San Diego,San Diego,47111,92109,32.786772,-117.234207,33.92735,-118.41591,104.3272958
Fresno,Fresno,47081,93720,36.862209,-119.760793,33.92735,-118.41591,216.6898892
Rowland Heights,Los Angeles,47079,91748,33.974883,-117.900676,33.92735,-118.41591,29.74396058
Sun Valley,Los Angeles,47076,91352,34.230854,-118.365856,33.92735,-118.41591,21.18752553
Los Angeles,Los Angeles,46883,90025,34.045421,-118.445873,33.92735,-118.41591,8.345500601
Garden Grove,Orange,46873,92843,33.763905,-117.931382,33.92735,-118.41591,30.04254253
Mission Viejo,Orange,46800,92692,33.606497,-117.643112,33.92735,-118.41591,49.66874455
Los Angeles,Los Angeles,46680,90023,34.022502,-118.199613,33.92735,-118.41591,14.04420483
Carlsbad,San Diego,46612,92009,33.09547,-117.243882,33.92735,-118.41591,88.76395794
Diamond Bar,Los Angeles,46593,91765,33.98627,-117.821282,33.92735,-118.41591,34.35721406
Los Angeles,Los Angeles,46461,90065,34.112272,-118.225496,33.92735,-118.41591,16.81555414
Buena Park,Orange,46414,90620,33.845223,-118.015292,33.92735,-118.41591,23.69408459
Campbell,Santa Clara,46352,95008,37.279173,-121.95534,33.92735,-118.41591,305.5096514
Lakeside,San Diego,46306,92040,32.908915,-116.891975,33.92735,-118.41591,112.7033245
Citrus Heights,Sacramento,46305,95610,38.694908,-121.271772,33.92735,-118.41591,366.1115901
Ceres,Stanislaus,46283,95307,37.554269,-120.951523,33.92735,-118.41591,288.4070342
Riverside,Riverside,46241,92506,33.934335,-117.367319,33.92735,-118.41591,60.1792827
Huntington Beach,Orange,46228,92648,33.67901,-118.014603,33.92735,-118.41591,28.75840151
Los Angeles,Los Angeles,46185,90059,33.926262,-118.249883,33.92735,-118.41591,9.528873757
Santa Maria,Santa Barbara,46175,93455,34.831792,-120.433509,33.92735,-118.41591,131.0630945
Camarillo,Ventura,46063,93010,34.227892,-119.079552,33.92735,-118.41591,43.33169844
Oceanside,San Diego,46029,92058,33.343438,-117.31725,33.92735,-118.41591,75.05997854
Woodland Hills,Los Angeles,45970,91367,34.177311,-118.615704,33.92735,-118.41591,20.73662374
Los Angeles,Los Angeles,45899,90016,34.028331,-118.354338,33.92735,-118.41591,7.826670305
Pleasanton,Alameda,45893,94566,37.648104,-121.849965,33.92735,-118.41591,321.4326004
Los Angeles,Los Angeles,45873,90043,33.988505,-118.336358,33.92735,-118.41591,6.22270347
Bakersfield,Kern,45481,93311,35.192404,-119.175866,33.92735,-118.41591,97.62185646
Coachella,Riverside,45477,92236,33.686145,-116.172918,33.92735,-118.41591,129.9827172
West Covina,Los Angeles,45444,91790,34.066964,-117.937007,33.92735,-118.41591,29.11067074
San Diego,San Diego,45435,92104,32.741501,-117.127948,33.92735,-118.41591,110.7551235
South El Monte,Los Angeles,45365,91733,34.046243,-118.053748,33.92735,-118.41591,22.33914237
Santa Rosa,Sonoma,45096,95403,38.503685,-122.754057,33.92735,-118.41591,398.3821808
San Bernardino,San Bernardino,45052,92410,34.107379,-117.297547,33.92735,-118.41591,65.31408119
Stockton,San Joaquin,44980,95209,38.046863,-121.352802,33.92735,-118.41591,328.8971784
Newbury Park,Ventura,44968,91320,34.175969,-118.945127,33.92735,-118.41591,34.86404069
Rancho Santa Margarita,Orange,44832,92688,33.619672,-117.612087,33.92735,-118.41591,50.87983069
Los Angeles,Los Angeles,44770,90027,34.127194,-118.295647,33.92735,-118.41591,15.44646188
Sacramento,Sacramento,44741,95822,38.512787,-121.493618,33.92735,-118.41591,360.6147812
Orange,Orange,44655,92867,33.80098,-117.843772,33.92735,-118.41591,34.00269516
San Francisco,San Francisco,44650,94117,37.769436,-122.447662,33.92735,-118.41591,348.7968837
Paso Robles,San Luis Obispo,44636,93446,35.662509,-120.749865,33.92735,-118.41591,178.8140439
Torrance,Los Angeles,44605,90503,33.840398,-118.353715,33.92735,-118.41591,6.994650811
Moreno Valley,Riverside,44452,92555,33.889702,-117.113427,33.92735,-118.41591,74.81262664
Walnut,Los Angeles,44440,91789,34.018195,-117.854821,33.92735,-118.41591,32.79207831
San Mateo,San Mateo,44408,94403,37.538449,-122.305447,33.92735,-118.41591,331.70802
Castro Valley,Alameda,44378,94546,37.714509,-122.079542,33.92735,-118.41591,332.8533654
Redding,Shasta,44328,96003,40.751937,-122.230678,33.92735,-118.41591,516.410538
Rohnert Park,Sonoma,44323,94928,38.34642,-122.694127,33.92735,-118.41591,387.8854505
North Hollywood,Los Angeles,44295,91606,34.185767,-118.388323,33.92735,-118.41591,17.9438034
San Diego,San Diego,44010,92102,32.71622,-117.117057,33.92735,-118.41591,112.4824113
San Francisco,San Francisco,43616,94121,37.776769,-122.494707,33.92735,-118.41591,350.8873371
Fresno,Fresno,43601,93702,36.739194,-119.753933,33.92735,-118.41591,208.621483
Oakland,Alameda,43399,94605,37.761408,-122.150198,33.92735,-118.41591,337.8115003
Menlo Park,San Mateo,43392,94025,37.457524,-122.176542,33.92735,-118.41591,322.81122
Redlands,San Bernardino,43391,92374,34.067146,-117.171885,33.92735,-118.41591,71.98950229
Concord,Contra Costa,43281,94521,37.956012,-121.956194,33.92735,-118.41591,341.9135276
El Cajon,San Diego,43272,92019,32.776012,-116.880634,33.92735,-118.41591,119.2021309
Downey,Los Angeles,43215,90241,33.940445,-118.129022,33.92735,-118.41591,16.48851984
Thousand Oaks,Ventura,43121,91360,34.212805,-118.882179,33.92735,-118.41591,33.21917216
San Bruno,San Mateo,43101,94066,37.625086,-122.433593,33.92735,-118.41591,340.8706728
Sacramento,Sacramento,43094,95831,38.493966,-121.529188,33.92735,-118.41591,360.4319391
El Dorado Hills,El Dorado,43052,95762,38.685087,-121.063769,33.92735,-118.41591,360.6141952
Antioch,Contra Costa,43022,94531,37.965765,-121.775818,33.92735,-118.41591,336.7174773
Whittier,Los Angeles,42911,90604,33.927691,-118.013828,33.92735,-118.41591,23.07598743
Turlock,Stanislaus,42866,95380,37.474396,-120.875917,33.92735,-118.41591,281.5454596
Fresno,Fresno,42824,93726,36.793661,-119.761461,33.92735,-118.41591,212.2800236
Burlingame,San Mateo,42760,94010,37.57028,-122.365778,33.92735,-118.41591,335.5648712
Downey,Los Angeles,42694,90242,33.921793,-118.140588,33.92735,-118.41591,15.80629108
Oakley,Contra Costa,42473,94561,37.993936,-121.691139,33.92735,-118.41591,335.7067386
Los Angeles,Los Angeles,42433,90007,34.028129,-118.284829,33.92735,-118.41591,10.25264985
San Francisco,San Francisco,42418,94134,37.721052,-122.413573,33.92735,-118.41591,345.0570344
Apple Valley,San Bernardino,42207,92308,34.424366,-117.161295,33.92735,-118.41591,79.59860487
Rancho Palos Verdes,Los Angeles,42146,90275,33.753155,-118.367963,33.92735,-118.41591,12.35947729
San Francisco,San Francisco,42095,94118,37.780097,-122.462605,33.92735,-118.41591,349.8906989
Roseville,Placer,42053,95678,38.76407,-121.287523,33.92735,-118.41591,370.7714304
Canyon Country,Los Angeles,42034,91387,34.402509,-118.363427,33.92735,-118.41591,33.00247898
Visalia,Tulare,42031,93292,36.37559,-119.211689,33.92735,-118.41591,175.2143938
Santa Rosa,Sonoma,42026,95407,38.3933,-122.745048,33.92735,-118.41591,392.1437183
Anaheim,Orange,42016,92802,33.808267,-117.923658,33.92735,-118.41591,29.44614815
Long Beach,Los Angeles,41990,90806,33.805401,-118.187701,33.92735,-118.41591,15.58621404
Torrance,Los Angeles,41975,90501,33.833744,-118.314022,33.92735,-118.41591,8.726376107
Hemet,Riverside,41879,92545,33.729853,-117.03406,33.92735,-118.41591,80.56396305
San Leandro,Alameda,41865,94578,37.706137,-122.12555,33.92735,-118.41591,334.0042779
Oceanside,San Diego,41807,92054,33.195534,-117.354538,33.92735,-118.41591,79.39945144
San Jose,Santa Clara,41790,95132,37.424565,-121.748597,33.92735,-118.41591,305.8508624
Citrus Heights,Sacramento,41740,95621,38.695704,-121.308303,33.92735,-118.41591,367.049019
San Rafael,Marin,41713,94901,37.978138,-122.497611,33.92735,-118.41591,361.4810616
Temecula,Riverside,41609,92591,33.535277,-117.104791,33.92735,-118.41591,80.14622977
Stockton,San Joaquin,41509,95210,38.030177,-121.297912,33.92735,-118.41591,326.379438
Long Beach,Los Angeles,41312,90815,33.794348,-118.116391,33.92735,-118.41591,19.50843587
Woodland,Yolo,41278,95695,38.687045,-121.857077,33.92735,-118.41591,380.9375652
Los Banos,Merced,41180,93635,37.068068,-120.843579,33.92735,-118.41591,256.645841
San Diego,San Diego,41159,92101,32.724103,-117.170912,33.92735,-118.41591,110.0145221
Madera,Madera,41108,93637,36.918079,-120.185933,33.92735,-118.41591,229.6492932
Monrovia,Los Angeles,41105,91016,34.1528,-118.000482,33.92735,-118.41591,28.46222215
Richmond,Contra Costa,40931,94804,37.916555,-122.341233,33.92735,-118.41591,352.7307285
La Quinta,Riverside,40929,92253,33.641767,-116.273943,33.92735,-118.41591,124.7079227
Yuba City,Sutter,40861,95991,38.994187,-121.594591,33.92735,-118.41591,392.4705241
Fair Oaks,Sacramento,40855,95628,38.652065,-121.25441,33.92735,-118.41591,363.042598
Chatsworth,Los Angeles,40839,91311,34.293338,-118.603118,33.92735,-118.41591,27.49107745
Fresno,Fresno,40586,93706,36.652065,-119.906591,33.92735,-118.41591,206.3906897
Los Angeles,Los Angeles,40567,90045,33.942108,-118.417488,33.92735,-118.41591,1.024781324
Santa Rosa,Sonoma,40497,95404,38.525733,-122.690443,33.92735,-118.41591,397.4368401
Santa Maria,Santa Barbara,40432,93454,34.923013,-120.259463,33.92735,-118.41591,125.7176456
Redondo Beach,Los Angeles,40252,90278,33.873215,-118.37036,33.92735,-118.41591,4.567124006
Whittier,Los Angeles,40192,90605,33.950295,-118.024352,33.92735,-118.41591,22.52498728
Sacramento,Sacramento,40170,95835,38.670649,-121.525983,33.92735,-118.41591,371.0083192
La Mesa,San Diego,40151,91942,32.777999,-117.021511,33.92735,-118.41591,113.179359
Calexico,Imperial,40064,92231,32.687552,-115.541028,33.92735,-118.41591,186.9939893
Chico,Butte,40000,95926,39.745628,-121.843834,33.92735,-118.41591,444.8339495
Los Angeles,Los Angeles,39916,90031,34.085784,-118.206666,33.92735,-118.41591,16.24901907
Sacramento,Sacramento,39905,95833,38.619049,-121.517552,33.92735,-118.41591,367.6633441
Palmdale,Los Angeles,39905,93552,34.570867,-118.023744,33.92735,-118.41591,49.83862854
Rancho Cucamonga,San Bernardino,39875,91739,34.172754,-117.521243,33.92735,-118.41591,54.00847192
Van Nuys,Los Angeles,39755,91401,34.178483,-118.431791,33.92735,-118.41591,17.39404111
San Jose,Santa Clara,39741,95129,37.305742,-122.000927,33.92735,-118.41591,308.5512319
Los Angeles,Los Angeles,39732,90005,34.059163,-118.306892,33.92735,-118.41591,11.05478148
Vista,San Diego,39509,92083,33.19784,-117.248203,33.92735,-118.41591,84.1153994
Rancho Cucamonga,San Bernardino,39461,91701,34.137564,-117.599945,33.92735,-118.41591,48.97922551
Anaheim,Orange,39442,92806,33.83796,-117.870494,33.92735,-118.41591,31.92301696
Lancaster,Los Angeles,39367,93534,34.713292,-118.15292,33.92735,-118.41591,56.39922447
Long Beach,Los Angeles,39330,90808,33.823943,-118.111335,33.92735,-118.41591,18.89647273
Fontana,San Bernardino,39240,92337,34.049809,-117.470613,33.92735,-118.41591,54.87034147
Long Beach,Los Angeles,39239,90804,33.781686,-118.148365,33.92735,-118.41591,18.37610633
Rocklin,Placer,39214,95765,38.815548,-121.280172,33.92735,-118.41591,373.7888836
Los Angeles,Los Angeles,39189,90020,34.066379,-118.30987,33.92735,-118.41591,11.3775625
Atwater,Merced,39186,95301,37.321233,-120.654395,33.92735,-118.41591,266.3316893
Manteca,San Joaquin,39177,95337,37.743039,-121.23838,33.92735,-118.41591,307.6974752
Apple Valley,San Bernardino,39149,92307,34.571218,-117.133073,33.92735,-118.41591,85.80514831
Sacramento,Sacramento,39145,95826,38.543754,-121.377692,33.92735,-118.41591,359.4694378
Sacramento,Sacramento,39053,95838,38.645723,-121.445254,33.92735,-118.41591,367.4110202
Redwood City,San Mateo,39023,94061,37.461147,-122.236948,33.92735,-118.41591,325.224599
Pacifica,San Mateo,38984,94044,37.606627,-122.477211,33.92735,-118.41591,341.558561
Oakland,Alameda,38975,94611,37.82935,-122.203507,33.92735,-118.41591,343.2928213
Long Beach,Los Angeles,38962,90802,33.745762,-118.208042,33.92735,-118.41591,17.33137448
Montclair,San Bernardino,38863,91763,34.072329,-117.698315,33.92735,-118.41591,42.35282461
Santa Rosa,Sonoma,38839,95401,38.449137,-122.793752,33.92735,-118.41591,396.8038036
San Juan Capistrano,Orange,38803,92675,33.50186,-117.608646,33.92735,-118.41591,54.9842389
Petaluma,Sonoma,38763,94954,38.235014,-122.557332,33.92735,-118.41591,377.2204187
Concord,Contra Costa,38753,94520,37.995285,-122.040627,33.92735,-118.41591,346.8420443
Turlock,Stanislaus,38700,95382,37.528476,-120.853313,33.92735,-118.41591,284.1744728
Santa Clara,Santa Clara,38699,95050,37.351157,-121.952295,33.92735,-118.41591,309.1352592
West Sacramento,Yolo,38690,95691,38.627951,-121.593287,33.92735,-118.41591,370.2011147
San Gabriel,Los Angeles,38664,91776,34.090776,-118.095091,33.92735,-118.41591,21.59013174
Moorpark,Ventura,38581,93021,34.295652,-118.897875,33.92735,-118.41591,37.55981839
Lemoore,Kings,38480,93245,36.29227,-119.829463,33.92735,-118.41591,182.0761106
Fremont,Alameda,38478,94555,37.548205,-122.098677,33.92735,-118.41591,324.7027467
Riverside,Riverside,38428,92508,33.891133,-117.326749,33.92735,-118.41591,62.57159545
Stockton,San Joaquin,38350,95205,37.964578,-121.259841,33.92735,-118.41591,321.4168169
Hemet,Riverside,38314,92543,33.667301,-116.963506,33.92735,-118.41591,85.39736733
Inglewood,Los Angeles,38234,90301,33.956526,-118.358654,33.92735,-118.41591,3.85571454
Oakland,Alameda,38220,94606,37.791887,-122.245334,33.92735,-118.41591,342.7536911
La Jolla,San Diego,38168,92037,32.856347,-117.250058,33.92735,-118.41591,100.1013138
San Jose,Santa Clara,38122,95120,37.186141,-121.843555,33.92735,-118.41591,296.6104412
Fresno,Fresno,38007,93711,36.834289,-119.83335,33.92735,-118.41591,216.3637983
Los Angeles,Los Angeles,37965,90036,34.07041,-118.350411,33.92735,-118.41591,10.5839343
Bakersfield,Kern,37902,93305,35.389749,-118.985186,33.92735,-118.41591,106.2085576
Pasadena,Los Angeles,37874,91104,34.165356,-118.123751,33.92735,-118.41591,23.48114851
Altadena,Los Angeles,37818,91001,34.194489,-118.138263,33.92735,-118.41591,24.38282702
Chico,Butte,37735,95928,39.68571,-121.844084,33.92735,-118.41591,441.1280297
Brea,Orange,37712,92821,33.927561,-117.887086,33.92735,-118.41591,30.34986554
Glendale,Los Angeles,37638,91205,34.13658,-118.245839,33.92735,-118.41591,17.44908965
San Jose,Santa Clara,37531,95121,37.304151,-121.809869,33.92735,-118.41591,301.5650684
Ramona,San Diego,37505,92065,33.053006,-116.850651,33.92735,-118.41591,108.6704516
Sacramento,Sacramento,37473,95825,38.591897,-121.408467,33.92735,-118.41591,363.1904901
Fullerton,Orange,37359,92831,33.879768,-117.89634,33.92735,-118.41591,30.00814766
Vallejo,Solano,37280,94590,38.103234,-122.249096,33.92735,-118.41591,359.6633624
Vacaville,Solano,37260,95688,38.408571,-122.022775,33.92735,-118.41591,369.5612095
Pleasanton,Alameda,37253,94588,37.792682,-121.86059,33.92735,-118.41591,329.7350256
Long Beach,Los Angeles,37251,90810,33.819814,-118.222416,33.92735,-118.41591,13.37152257
Torrance,Los Angeles,37220,90505,33.807882,-118.347957,33.92735,-118.41591,9.138524269
Yuba City,Sutter,37077,95993,39.082497,-121.680114,33.92735,-118.41591,400.017569
San Mateo,San Mateo,36985,94404,37.555999,-122.267679,33.92735,-118.41591,331.2200177
San Jose,Santa Clara,36975,95128,37.315977,-121.936319,33.92735,-118.41591,306.7246327
Orange,Orange,36846,92869,33.80845,-117.791737,33.92735,-118.41591,36.77833102
North Hollywood,Los Angeles,36841,91601,34.1692,-118.372498,33.92735,-118.41591,16.91213442
Fresno,Fresno,36808,93705,36.786671,-119.828335,33.92735,-118.41591,213.2098193
Claremont,Los Angeles,36777,91711,34.128066,-117.714773,33.92735,-118.41591,42.52180017
Santa Cruz,Santa Cruz,36737,95062,36.970525,-121.987488,33.92735,-118.41591,291.1635811
Chico,Butte,36682,95973,39.891624,-121.841982,33.92735,-118.41591,453.866819
Los Angeles,Los Angeles,36668,90029,34.089848,-118.294661,33.92735,-118.41591,13.21582524
Thousand Oaks,Ventura,36604,91362,34.193326,-118.818684,33.92735,-118.41591,29.51456659
Sonoma,Sonoma,36586,95476,38.249428,-122.466627,33.92735,-118.41591,374.9161108
Los Angeles,Los Angeles,36552,90012,34.065975,-118.238642,33.92735,-118.41591,13.97392657
Mountain View,Santa Clara,36526,94040,37.380566,-122.085293,33.92735,-118.41591,315.501552
Placerville,El Dorado,36487,95667,38.734925,-120.789952,33.92735,-118.41591,357.83542
Sacramento,Sacramento,36437,95820,38.534879,-121.444372,33.92735,-118.41591,360.6540087
Los Angeles,Los Angeles,36418,90049,34.09254,-118.491064,33.92735,-118.41591,12.21128713
Northridge,Los Angeles,36339,91326,34.281486,-118.556005,33.92735,-118.41591,25.77527041
San Jose,Santa Clara,36206,95126,37.326791,-121.916745,33.92735,-118.41591,306.5806778
Santa Clarita,Los Angeles,36173,91350,34.440891,-118.501747,33.92735,-118.41591,35.85823253
San Fernando,Los Angeles,36156,91340,34.286687,-118.43508,33.92735,-118.41591,24.87864081
San Diego,San Diego,36105,92139,32.679888,-117.04889,33.92735,-118.41591,117.000733
Camarillo,Ventura,36052,93012,34.196026,-118.992531,33.92735,-118.41591,37.90826738
San Mateo,San Mateo,36001,94401,37.576948,-122.316903,33.92735,-118.41591,334.1024871
Corona,Riverside,35933,92883,33.748086,-117.468037,33.92735,-118.41591,55.85041489
Los Angeles,Los Angeles,35916,90062,34.003638,-118.308806,33.92735,-118.41591,8.098937889
San Luis Obispo,San Luis Obispo,35898,93405,35.296958,-120.733134,33.92735,-118.41591,162.393537
Oakland,Alameda,35862,94603,37.736529,-122.179445,33.92735,-118.41591,337.5054603
Merced,Merced,35827,95340,37.345785,-120.42415,33.92735,-118.41591,261.9931606
Sacramento,Sacramento,35812,95821,38.625693,-121.384916,33.92735,-118.41591,364.6541913
Santa Ana,Orange,35748,92706,33.765301,-117.881976,33.92735,-118.41591,32.65606184
San Francisco,San Francisco,35747,94124,37.728895,-122.382779,33.92735,-118.41591,344.3454703
Mira Loma,Riverside,35694,91752,33.996484,-117.531269,33.92735,-118.41591,50.97476102
Anaheim,Orange,35687,92807,33.848733,-117.788357,33.92735,-118.41591,36.44067308
Sanger,Fresno,35666,93657,36.817791,-119.457602,33.92735,-118.41591,208.3734881
Buena Park,Orange,35598,90621,33.874224,-117.993368,33.92735,-118.41591,24.5345404
Petaluma,Sonoma,35503,94952,38.234553,-122.760385,33.92735,-118.41591,384.2559374
Manhattan Beach,Los Angeles,35500,90266,33.889151,-118.402127,33.92735,-118.41591,2.758047918
North Highlands,Sacramento,35461,95660,38.678545,-121.379969,33.92735,-118.41591,367.7655029
Newport Beach,Orange,35446,92660,33.634626,-117.874882,33.92735,-118.41591,37.11287488
Oakdale,Stanislaus,35308,95361,37.787236,-120.759202,33.92735,-118.41591,297.5159774
Huntington Beach,Orange,35278,92649,33.72524,-118.051579,33.92735,-118.41591,25.17269749
Desert Hot Springs,Riverside,35278,92240,33.95154,-116.520104,33.92735,-118.41591,108.7987661
San Ramon,Contra Costa,35231,94583,37.75512,-121.972699,33.92735,-118.41591,331.3999434
Pomona,Los Angeles,35191,91768,34.063516,-117.790379,33.92735,-118.41591,37.08709224
Clovis,Fresno,35140,93612,36.814864,-119.710596,33.92735,-118.41591,212.6451259
Temple City,Los Angeles,35133,91780,34.102077,-118.057754,33.92735,-118.41591,23.82644226
Oakland,Alameda,35035,94621,37.748272,-122.216825,33.92735,-118.41591,339.4402743
Pleasant Hill,Contra Costa,35005,94523,37.954131,-122.07614,33.92735,-118.41591,345.7431104
Tehachapi,Kern,34979,93561,35.118772,-118.493811,33.92735,-118.41591,82.52703753
San Francisco,San Francisco,34918,94114,37.758057,-122.43541,33.92735,-118.41591,347.7635291
Victorville,San Bernardino,34915,92394,34.556111,-117.353632,33.92735,-118.41591,74.70303254
Redwood City,San Mateo,34867,94063,37.493297,-122.195535,33.92735,-118.41591,325.3490507
Redondo Beach,Los Angeles,34827,90277,33.830006,-118.387124,33.92735,-118.41591,6.932975867
Lawndale,Los Angeles,34827,90260,33.88856,-118.351813,33.92735,-118.41591,4.553775612
Glendale,Los Angeles,34739,91206,34.160359,-118.213769,33.92735,-118.41591,19.84850966
San Diego,San Diego,34727,92131,32.88607,-117.085982,33.92735,-118.41591,105.2780769
San Diego,San Diego,34700,92103,32.747415,-117.166883,33.92735,-118.41591,108.9476304
Palm Desert,Riverside,34660,92260,33.708012,-116.403627,33.92735,-118.41591,116.6251155
Covina,Los Angeles,34631,91722,34.097345,-117.906736,33.92735,-118.41591,31.47191154
San Francisco,San Francisco,34604,94115,37.785969,-122.437253,33.92735,-118.41591,349.2766459
Northridge,Los Angeles,34575,91325,34.237519,-118.517712,33.92735,-118.41591,22.23211722
Seaside,Monterey,34566,93955,36.61441,-121.786901,33.92735,-118.41591,266.0077513
Redding,Shasta,34293,96001,40.601778,-122.454973,33.92735,-118.41591,512.2465939
Adelanto,San Bernardino,34250,92301,34.585234,-117.453724,33.92735,-118.41591,71.3883331
San Clemente,Orange,34218,92672,33.42411,-117.606775,33.92735,-118.41591,58.14366599
Redding,Shasta,34196,96002,40.527834,-122.318749,33.92735,-118.41591,504.4620023
La Verne,Los Angeles,34129,91750,34.18001,-117.773939,33.92735,-118.41591,40.72855788
Arcadia,Los Angeles,34116,91007,34.128284,-118.047732,33.92735,-118.41591,25.27030116
Newhall,Los Angeles,34014,91321,34.36811,-118.489038,33.92735,-118.41591,30.77226623
Moreno Valley,Riverside,34011,92551,33.88274,-117.224878,33.92735,-118.41591,68.44205232
San Dimas,Los Angeles,34007,91773,34.110186,-117.81039,33.92735,-118.41591,36.94595969
Merced,Merced,34002,95348,37.392287,-120.498299,33.92735,-118.41591,266.685604
Ridgecrest,Kern,33833,93555,35.606509,-117.683472,33.92735,-118.41591,123.3728331
Santa Paula,Ventura,33773,93060,34.402343,-119.094824,33.92735,-118.41591,50.88279454
Garden Grove,Orange,33754,92841,33.786846,-117.98202,33.92735,-118.41591,26.74981722
Wildomar,Riverside,33649,92595,33.617844,-117.259304,33.92735,-118.41591,69.85993461
Monterey Park,Los Angeles,33636,91754,34.052922,-118.143465,33.92735,-118.41591,17.8762685
Corona,Riverside,33531,92881,33.827409,-117.524128,33.92735,-118.41591,51.67486796
Banning,Riverside,33525,92220,33.948948,-116.832362,33.92735,-118.41591,90.88183919
Sacramento,Sacramento,33522,95842,38.686809,-121.349146,33.92735,-118.41591,367.5059774
Chula Vista,San Diego,33485,91915,32.623185,-116.949053,33.92735,-118.41591,123.8197906
Atascadero,San Luis Obispo,33466,93422,35.463544,-120.692911,33.92735,-118.41591,167.494902
Marysville,Yuba,33455,95901,39.223939,-121.49405,33.92735,-118.41591,404.2146323
Barstow,San Bernardino,33454,92311,34.980294,-116.964449,33.92735,-118.41591,110.2567677
Fresno,Fresno,33448,93710,36.822349,-119.760243,33.92735,-118.41591,214.1051326
Torrance,Los Angeles,33410,90504,33.867257,-118.330794,33.92735,-118.41591,6.41526317
San Diego,San Diego,33408,92116,32.764971,-117.123145,33.92735,-118.41591,109.7402964
West Covina,Los Angeles,33397,91791,34.061624,-117.892235,33.92735,-118.41591,31.43400095
Redlands,San Bernardino,33353,92373,34.011953,-117.159699,33.92735,-118.41591,72.29659181
Irvine,Orange,33234,92612,33.65844,-117.826009,33.92735,-118.41591,38.67474701
Compton,Los Angeles,33200,90222,33.912246,-118.236773,33.92735,-118.41591,10.33476598
Sherman Oaks,Los Angeles,33172,91423,34.148617,-118.433298,33.92735,-118.41591,15.33687822
Danville,Contra Costa,33135,94526,37.814613,-121.990552,33.92735,-118.41591,335.2465147
Merced,Merced,33090,95341,37.231045,-120.501072,33.92735,-118.41591,256.8365967
Whittier,Los Angeles,32987,90606,33.977272,-118.066363,33.92735,-118.41591,20.35017503
Arcadia,Los Angeles,32958,91006,34.136258,-118.026704,33.92735,-118.41591,26.58024719
Studio City,Los Angeles,32910,91604,34.140822,-118.392864,33.92735,-118.41591,14.8242759
Fresno,Fresno,32754,93703,36.76886,-119.762393,33.92735,-118.41591,210.7020933
Hayward,Alameda,32724,94545,37.605905,-122.126873,33.92735,-118.41591,328.7408807
Canyon Country,Los Angeles,32711,91351,34.441596,-118.448109,33.92735,-118.41591,35.61673862
San Jacinto,Riverside,32697,92583,33.795196,-116.932856,33.92735,-118.41591,85.66873718
Culver City,Los Angeles,32687,90230,33.997862,-118.393617,33.92735,-118.41591,5.042022106
Trabuco Canyon,Orange,32657,92679,33.606695,-117.60436,33.92735,-118.41591,51.66580644
Modesto,Stanislaus,32622,95356,37.718023,-121.032714,33.92735,-118.41591,300.434319
San Diego,San Diego,32600,92124,32.823766,-117.092378,33.92735,-118.41591,108.0294408
Valencia,Los Angeles,32544,91354,34.465755,-118.553789,33.92735,-118.41591,38.06628403
Modesto,Stanislaus,32524,95358,37.612612,-121.108568,33.92735,-118.41591,296.2896449
Pasadena,Los Angeles,32503,91107,34.155533,-118.086178,33.92735,-118.41591,24.62204502
San Diego,San Diego,32473,92123,32.806794,-117.13493,33.92735,-118.41591,107.1554671
San Jose,Santa Clara,32421,95118,37.25552,-121.889995,33.92735,-118.41591,301.9003591
Ventura,Ventura,32396,93001,34.03734,-119.800786,33.92735,-118.41591,79.79145063
Winchester,Riverside,32256,92596,33.665848,-117.04966,33.92735,-118.41591,80.58644698
Monterey,Monterey,32236,93940,36.57469,-121.840854,33.92735,-118.41591,266.3339738
Long Beach,Los Angeles,32202,90807,33.82774,-118.17482,33.92735,-118.41591,15.46417739
Orangevale,Sacramento,32172,95662,38.689174,-121.218435,33.92735,-118.41591,364.4752045
Long Beach,Los Angeles,32126,90803,33.756289,-118.130636,33.92735,-118.41591,20.21338588
Tracy,San Joaquin,32091,95377,37.673944,-121.517227,33.92735,-118.41591,312.0793365
Whittier,Los Angeles,32053,90601,34.00784,-118.030271,33.92735,-118.41591,22.81165895
Mill Valley,Marin,32009,94941,37.897665,-122.563172,33.92735,-118.41591,359.6202828
Oakland,Alameda,31936,94610,37.811406,-122.242458,33.92735,-118.41591,343.6899284
La Mesa,San Diego,31918,91941,32.759333,-116.997247,33.92735,-118.41591,115.0901807
Galt,Sacramento,31911,95632,38.274451,-121.259201,33.92735,-118.41591,340.0338219
Los Angeles,Los Angeles,31754,90008,34.009552,-118.346724,33.92735,-118.41591,6.933846964
Canoga Park,Los Angeles,31586,91303,34.198292,-118.600913,33.92735,-118.41591,21.5307752
Vallejo,Solano,31536,94589,38.18735,-122.224074,33.92735,-118.41591,363.4615056
Ventura,Ventura,31525,93004,34.278679,-119.165615,33.92735,-118.41591,49.33695829
Ukiah,Mendocino,31482,95482,39.135023,-123.259338,33.92735,-118.41591,449.5113586
Dinuba,Tulare,31470,93618,36.521012,-119.389446,33.92735,-118.41591,187.6373086
San Francisco,San Francisco,31461,94107,37.76046,-122.399724,33.92735,-118.41591,346.5966582
San Francisco,San Francisco,31436,94132,37.72222,-122.484077,33.92735,-118.41591,347.6958059
San Francisco,San Francisco,31392,94102,37.779588,-122.419318,33.92735,-118.41591,348.2976714
Santa Barbara,Santa Barbara,31371,93101,34.418979,-119.709166,33.92735,-118.41591,81.44433814
Roseville,Placer,31315,95661,38.741074,-121.247693,33.92735,-118.41591,368.3932873
San Jose,Santa Clara,31236,95131,37.387111,-121.897417,33.92735,-118.41591,309.0550436
San Diego,San Diego,31223,92107,32.739055,-117.245404,33.92735,-118.41591,106.444391
Lakewood,Los Angeles,31217,90712,33.849034,-118.147902,33.92735,-118.41591,16.31398194
Richmond,Contra Costa,31210,94801,37.952844,-122.381974,33.92735,-118.41591,356.0816996
Saratoga,Santa Clara,31196,95070,37.260499,-122.046165,33.92735,-118.41591,307.9067074
Mountain View,Santa Clara,31161,94043,37.414028,-122.070679,33.92735,-118.41591,316.6956553
Indio,Riverside,31140,92203,33.753959,-116.246487,33.92735,-118.41591,125.2060229
San Carlos,San Mateo,31074,94070,37.496466,-122.272565,33.92735,-118.41591,328.3468141
Emeryville,Alameda,31013,94608,37.836844,-122.289143,33.92735,-118.41591,346.6747379
San Ysidro,San Diego,31000,92173,32.553021,-117.042454,33.92735,-118.41591,123.8888281
Burbank,Los Angeles,30902,91505,34.173885,-118.346937,33.92735,-118.41591,17.50431124
La Crescenta,Los Angeles,30787,91214,34.236302,-118.249185,33.92735,-118.41591,23.40675452
San Clemente,Orange,30768,92673,33.467371,-117.613509,33.92735,-118.41591,56.07414592
Arroyo Grande,San Luis Obispo,30740,93420,35.176043,-120.476694,33.92735,-118.41591,145.739153
Sebastopol,Sonoma,30736,95472,38.398815,-122.861923,33.92735,-118.41591,396.4857981
Selma,Fresno,30725,93662,36.536573,-119.638651,33.92735,-118.41591,193.2375403
San Francisco,San Francisco,30703,94103,37.773134,-122.411167,33.92735,-118.41591,347.6681982
Valley Village,Los Angeles,30611,91607,34.165783,-118.399795,33.92735,-118.41591,16.51763047
San Diego,San Diego,30550,92120,32.794714,-117.071764,33.92735,-118.41591,110.302349
Stanton,Orange,30531,90680,33.801191,-117.994904,33.92735,-118.41591,25.70632546
Valencia,Los Angeles,30526,91355,34.439855,-118.644401,33.92735,-118.41591,37.78264302
Encino,Los Angeles,30499,91316,34.160236,-118.515472,33.92735,-118.41591,17.08893873
San Lorenzo,Alameda,30488,94580,37.675731,-122.133017,33.92735,-118.41591,332.6491579
San Rafael,Marin,30427,94903,38.022366,-122.555605,33.92735,-118.41591,365.8598981
Reedley,Fresno,30373,93654,36.658709,-119.401274,33.92735,-118.41591,196.9370518
San Jose,Santa Clara,30369,95117,37.311181,-121.96187,33.92735,-118.41591,307.4041331
Shingle Springs,El Dorado,30314,95682,38.612129,-120.964522,33.92735,-118.41591,353.7893099
Sacramento,Sacramento,30296,95824,38.517585,-121.440739,33.92735,-118.41591,359.5115824
El Monte,Los Angeles,30222,91731,34.078573,-118.043456,33.92735,-118.41591,23.78047046
Oakland,Alameda,30162,94602,37.80432,-122.207545,33.92735,-118.41591,342.0954777
San Bernardino,San Bernardino,30112,92405,34.144618,-117.301301,33.92735,-118.41591,65.63050859
San Diego,San Diego,30108,92110,32.765244,-117.200391,33.92735,-118.41591,106.7384263
Sacramento,Sacramento,30076,95834,38.635653,-121.518416,33.92735,-118.41591,368.6909105
Inglewood,Los Angeles,30017,90302,33.975332,-118.355252,33.92735,-118.41591,4.809013297
Laguna Hills,Orange,30012,92653,33.591304,-117.697512,33.92735,-118.41591,47.40081375
Oroville,Butte,29860,95966,39.47536,-121.41411,33.92735,-118.41591,418.1416604
Tarzana,Los Angeles,29822,91356,34.155097,-118.547553,33.92735,-118.41591,17.46637411
Lafayette,Contra Costa,29795,94549,37.897009,-122.114292,33.92735,-118.41591,343.8962209
Los Angeles,Los Angeles,29774,90028,34.099912,-118.326912,33.92735,-118.41591,12.98059814
Fresno,Fresno,29740,93704,36.799054,-119.801608,33.92735,-118.41591,213.4458574
La Puente,Los Angeles,29709,91746,34.044416,-117.985366,33.92735,-118.41591,25.98620439
Northridge,Los Angeles,29670,91324,34.238208,-118.55029,33.92735,-118.41591,22.83778563
West Covina,Los Angeles,29619,91792,34.022581,-117.902359,33.92735,-118.41591,30.18433646
Berkeley,Alameda,29597,94704,37.866536,-122.257996,33.92735,-118.41591,347.1691393
Ladera Ranch,Orange,29570,92694,33.547238,-117.623761,33.92735,-118.41591,52.60474094
Alhambra,Los Angeles,29567,91803,34.074736,-118.145959,33.92735,-118.41591,18.53473786
Suisun City,Solano,29525,94585,38.192498,-121.927529,33.92735,-118.41591,354.3082655
San Francisco,San Francisco,29523,94131,37.745916,-122.441472,33.92735,-118.41591,347.3563173
Los Angeles,Los Angeles,29510,90039,34.111885,-118.261033,33.92735,-118.41591,15.5483294
Auburn,Placer,29474,95603,38.915869,-121.080284,33.92735,-118.41591,375.5086905
Stockton,San Joaquin,29426,95212,38.049939,-121.23297,33.92735,-118.41591,325.7861588
Oxnard,Ventura,29354,93035,34.181971,-119.224985,33.92735,-118.41591,49.59639465
San Jose,Santa Clara,29349,95134,37.426377,-121.950977,33.92735,-118.41591,313.0302258
South Lake Tahoe,El Dorado,29327,96150,38.869825,-120.008594,33.92735,-118.41591,353.1520571
Windsor,Sonoma,29271,95492,38.528079,-122.821349,33.92735,-118.41591,401.9809676
Stockton,San Joaquin,29270,95219,38.051726,-121.483036,33.92735,-118.41591,332.880391
Castaic,Los Angeles,29212,91384,34.506627,-118.699048,33.92735,-118.41591,43.21594856
Red Bluff,Tehama,29139,96080,40.18189,-122.377104,33.92735,-118.41591,484.5894531
Los Angeles,Los Angeles,29090,90041,34.137412,-118.207607,33.92735,-118.41591,18.80607996
Irvine,Orange,28990,92604,33.690715,-117.789224,33.92735,-118.41591,39.5607716
San Luis Obispo,San Luis Obispo,28854,93401,35.23575,-120.615973,33.92735,-118.41591,154.5460092
Concord,Contra Costa,28734,94518,37.950362,-122.022039,33.92735,-118.41591,343.7498665
Bloomington,San Bernardino,28704,92316,34.059306,-117.390768,33.92735,-118.41591,59.49269552
Stockton,San Joaquin,28667,95204,37.973736,-121.319246,33.92735,-118.41591,323.6185608
Palm Springs,Riverside,28618,92262,33.860925,-116.566176,33.92735,-118.41591,106.2980311
Los Angeles,Los Angeles,28580,90038,34.088475,-118.325527,33.92735,-118.41591,12.29057192
San Jose,Santa Clara,28565,95133,37.371606,-121.860844,33.92735,-118.41591,306.938311
Santa Barbara,Santa Barbara,28545,93105,34.533222,-119.791731,33.92735,-118.41591,89.14151038
Olivehurst,Yuba,28489,95961,39.040305,-121.560484,33.92735,-118.41591,394.4538067
Redwood City,San Mateo,28423,94062,37.413691,-122.295343,33.92735,-118.41591,324.9983601
Benicia,Solano,28350,94510,38.098071,-122.13594,33.92735,-118.41591,355.6445515
Sacramento,Sacramento,28264,95829,38.489544,-121.323454,33.92735,-118.41591,354.7783385
Lakewood,Los Angeles,28202,90713,33.847989,-118.112601,33.92735,-118.41591,18.26000827
Salinas,Monterey,28194,93901,36.636344,-121.623978,33.92735,-118.41591,260.5787562
Santa Monica,Los Angeles,28156,90405,34.011312,-118.469762,33.92735,-118.41591,6.577910902
Wasco,Kern,28138,93280,35.652242,-119.4464,33.92735,-118.41591,132.8900277
Sonora,Tuolumne,28096,95370,37.984549,-120.349264,33.92735,-118.41591,300.7576005
Harbor City,Los Angeles,28045,90710,33.799904,-118.298661,33.92735,-118.41591,11.09298562
Woodland Hills,Los Angeles,27971,91364,34.15404,-118.593153,33.92735,-118.41591,18.68278886
Patterson,Stanislaus,27908,95363,37.452895,-121.229974,33.92735,-118.41591,290.5738289
Los Angeles,Los Angeles,27873,90061,33.92128,-118.274186,33.92735,-118.41591,8.144851684
Walnut Creek,Contra Costa,27831,94598,37.899936,-121.999244,33.92735,-118.41591,340.2183904
Los Angeles,Los Angeles,27723,90017,34.052913,-118.26434,33.92735,-118.41591,12.28757532
Pasadena,Los Angeles,27659,91103,34.169538,-118.164941,33.92735,-118.41591,22.07898318
Napa,Napa,27593,94559,38.245724,-122.313405,33.92735,-118.41591,369.6109333
El Macero,Yolo,27519,95618,38.543211,-121.6815,33.92735,-118.41591,367.5239565
Palo Alto,Santa Clara,27435,94306,37.415727,-122.130762,33.92735,-118.41591,318.9803864
Maywood,Los Angeles,27287,90270,33.987729,-118.186597,33.92735,-118.41591,13.80287181
Los Angeles,Los Angeles,27272,90035,34.051809,-118.383674,33.92735,-118.41591,8.804777548
Lemon Grove,San Diego,27236,91945,32.733168,-117.034176,33.92735,-118.41591,114.8829533
Fresno,Fresno,27214,93725,36.627211,-119.731888,33.92735,-118.41591,200.9769765
Brawley,Imperial,27189,92227,32.990121,-115.358757,33.92735,-118.41591,187.9369071
Irvine,Orange,27187,92614,33.680302,-117.833295,33.92735,-118.41591,37.5933374
Santa Rosa,Sonoma,27186,95409,38.468829,-122.580724,33.92735,-118.41591,390.68051
Belmont,San Mateo,27155,94002,37.514352,-122.298896,33.92735,-118.41591,330.2347347
Carlsbad,San Diego,27151,92008,33.147294,-117.322181,33.92735,-118.41591,82.9881588
Carson,Los Angeles,27075,90746,33.859171,-118.252272,33.92735,-118.41591,10.51225603
Orange,Orange,27072,92868,33.788145,-117.87655,33.92735,-118.41591,32.44158873
Soledad,Monterey,26966,93960,36.389618,-121.343146,33.92735,-118.41591,237.4724749
Tujunga,Los Angeles,26966,91042,34.322618,-118.23757,33.92735,-118.41591,29.18437905
Venice,Los Angeles,26950,90291,33.993396,-118.465193,33.92735,-118.41591,5.372380425
Dana Point,Orange,26877,92629,33.47512,-117.705675,33.92735,-118.41591,51.46533053
Norco,Riverside,26849,92860,33.925519,-117.551958,33.92735,-118.41591,49.58393612
Oakland,Alameda,26823,94607,37.807215,-122.301497,33.92735,-118.41591,345.5406816
Monterey Park,Los Angeles,26803,91755,34.050965,-118.114394,33.92735,-118.41591,19.29021116
San Francisco,San Francisco,26796,94133,37.804531,-122.410852,33.92735,-118.41591,349.2916351
Glendora,Los Angeles,26794,91741,34.156529,-117.841605,33.92735,-118.41591,36.53377508
Burbank,Los Angeles,26749,91504,34.204568,-118.326365,33.92735,-118.41591,19.84902361
Covina,Los Angeles,26717,91724,34.080444,-117.854734,33.92735,-118.41591,33.87519439
Calabasas,Los Angeles,26712,91302,34.123305,-118.671025,33.92735,-118.41591,19.93938726
Imperial Beach,San Diego,26492,91932,32.573755,-117.120872,33.92735,-118.41591,119.9012825
Gardena,Los Angeles,26429,90249,33.90139,-118.315697,33.92735,-118.41591,6.025973818
Downey,Los Angeles,26413,90240,33.955729,-118.118346,33.92735,-118.41591,17.18720997
Lodi,San Joaquin,26409,95242,38.137068,-121.384546,33.92735,-118.41591,335.1437656
Duarte,Los Angeles,26380,91010,34.141586,-117.957627,33.92735,-118.41591,30.15960013
West Hills,Los Angeles,26341,91307,34.200834,-118.6649,33.92735,-118.41591,23.69314317
Agoura Hills,Los Angeles,26334,91301,34.123286,-118.758541,33.92735,-118.41591,23.86317418
Yucca Valley,San Bernardino,26182,92284,34.185894,-116.432416,33.92735,-118.41591,115.0585724
Irvine,Orange,26171,92606,33.705442,-117.8236,33.92735,-118.41591,37.33823728
El Cerrito,Contra Costa,26145,94530,37.921561,-122.298337,33.92735,-118.41591,351.5076383
Van Nuys,Los Angeles,26111,91411,34.178522,-118.459234,33.92735,-118.41591,17.54942064
Upland,San Bernardino,26090,91784,34.141146,-117.655583,33.92735,-118.41591,46.02171344
Los Gatos,Santa Clara,26047,95032,37.216953,-121.926555,33.92735,-118.41591,301.2463142
Eureka,Humboldt,25972,95503,40.738322,-124.107619,33.92735,-118.41591,565.3061489
Inglewood,Los Angeles,25946,90304,33.937886,-118.358559,33.92735,-118.41591,3.370963004
Los Angeles,Los Angeles,25925,90064,34.037251,-118.423573,33.92735,-118.41591,7.614261273
Lake Elsinore,Riverside,25923,92532,33.692673,-117.302957,33.92735,-118.41591,65.98886571
El Sobrante,Contra Costa,25893,94803,37.959549,-122.283578,33.92735,-118.41591,353.0360471
San Francisco,San Francisco,25890,94123,37.800934,-122.438366,33.92735,-118.41591,350.0940835
Glendora,Los Angeles,25877,91740,34.119367,-117.855054,33.92735,-118.41591,34.78703014
Novato,Marin,25867,94947,38.112166,-122.634384,33.92735,-118.41591,373.3691928
Fullerton,Orange,25837,92832,33.868649,-117.929055,33.92735,-118.41591,28.24422649
San Mateo,San Mateo,25703,94402,37.523602,-122.34492,33.92735,-118.41591,332.4146772
Sacramento,Sacramento,25673,95815,38.605407,-121.447593,33.92735,-118.41591,365.0177996
San Bernardino,San Bernardino,25650,92411,34.122501,-117.320138,33.92735,-118.41591,64.24925369
South Pasadena,Los Angeles,25637,91030,34.108957,-118.156615,33.92735,-118.41591,19.46190553
Hercules,Contra Costa,25616,94547,38.010166,-122.261728,33.92735,-118.41591,355.0222316
Whittier,Los Angeles,25581,90602,33.972782,-118.022066,33.92735,-118.41591,22.81465008
Pasadena,Los Angeles,25543,91106,34.139402,-118.128658,33.92735,-118.41591,22.05054376
Rocklin,Placer,25477,95677,38.791075,-121.234854,33.92735,-118.41591,371.1967851
Marina,Monterey,25442,93933,36.686845,-121.786887,33.92735,-118.41591,269.4697217
Grass Valley,Nevada,25381,95945,39.196387,-120.972289,33.92735,-118.41591,391.0910035
Danville,Contra Costa,25240,94506,37.809677,-121.913141,33.92735,-118.41591,332.402666
Aptos,Santa Cruz,25185,95003,37.0067,-121.878207,33.92735,-118.41591,288.7554448
Sherman Oaks,Los Angeles,25156,91403,34.147149,-118.463365,33.92735,-118.41591,15.44432721
Rancho Cucamonga,San Bernardino,25154,91737,34.152583,-117.577707,33.92735,-118.41591,50.50450219
Riverbank,Stanislaus,25072,95367,37.729282,-120.942905,33.92735,-118.41591,298.6893116
Palos Verdes Peninsula,Los Angeles,25061,90274,33.780065,-118.372454,33.92735,-118.41591,10.48867333
Palm Desert,Riverside,25056,92211,33.765401,-116.334205,33.92735,-118.41591,120.1067143
San Gabriel,Los Angeles,25004,91775,34.115273,-118.088266,33.92735,-118.41591,22.84202634
Modesto,Stanislaus,24923,95354,37.639029,-120.964772,33.92735,-118.41591,293.8433358
San Diego,San Diego,24831,92119,32.817888,-117.031956,33.92735,-118.41591,110.8095351
Laguna Beach,Orange,24800,92651,33.57093,-117.773042,33.92735,-118.41591,44.43729809
Santa Clara,Santa Clara,24524,95054,37.393491,-121.96467,33.92735,-118.41591,311.7931561
Inglewood,Los Angeles,24374,90303,33.939766,-118.331085,33.92735,-118.41591,4.943040022
Stockton,San Joaquin,24326,95215,37.949421,-121.157283,33.92735,-118.41591,317.7029195
Seal Beach,Orange,24307,90740,33.758405,-118.075043,33.92735,-118.41591,22.80377756
Port Hueneme,Ventura,24208,93041,34.106896,-119.099535,33.92735,-118.41591,41.11313416
Oakland,Alameda,24112,94619,37.790438,-122.140819,33.92735,-118.41591,339.0417935
Imperial,Imperial,23970,92251,32.881449,-115.675459,33.92735,-118.41591,173.9810073
Granite Bay,Placer,23934,95746,38.747526,-121.180092,33.92735,-118.41591,367.2007969
Woodland,Yolo,23911,95776,38.698614,-121.699262,33.92735,-118.41591,377.2854493
Santa Monica,Los Angeles,23902,90403,34.030755,-118.492101,33.92735,-118.41591,8.38165084
Crescent City,Del Norte,23737,95531,41.819578,-124.065667,33.92735,-118.41591,626.6499466
Oakland,Alameda,23726,94609,37.834403,-122.264368,33.92735,-118.41591,345.6783564
Los Altos,Santa Clara,23675,94024,37.352234,-122.094399,33.92735,-118.41591,314.3815954
Paradise,Butte,23572,95969,39.716846,-121.64618,33.92735,-118.41591,438.4846955
Marina Del Rey,Los Angeles,23549,90292,33.976582,-118.455222,33.92735,-118.41591,4.084492676
Fullerton,Orange,23528,92835,33.901886,-117.916639,33.92735,-118.41591,28.71217125
Corcoran,Kings,23357,93212,36.042151,-119.5277,33.92735,-118.41591,159.2634179
Sacramento,Sacramento,23352,95864,38.584047,-121.375846,33.92735,-118.41591,361.8799592
Glendale,Los Angeles,23345,91202,34.168366,-118.267771,33.92735,-118.41591,18.70778521
Eureka,Humboldt,23324,95501,40.798659,-124.151583,33.92735,-118.41591,570.0424655
Salinas,Monterey,23299,93907,36.769389,-121.667532,33.92735,-118.41591,268.8380492
Glendale,Los Angeles,23281,91201,34.17051,-118.289463,33.92735,-118.41591,18.31346678
Irvine,Orange,23238,92602,33.754048,-117.752273,33.92735,-118.41591,39.96559531
Anderson,Shasta,23228,96007,40.458029,-122.27783,33.92735,-118.41591,499.180334
Sunnyvale,Santa Clara,23223,94085,37.388556,-122.017732,33.92735,-118.41591,313.4503702
Garden Grove,Orange,23189,92844,33.765471,-117.969504,33.92735,-118.41591,27.98193417
Twentynine Palms,San Bernardino,23172,92277,34.141358,-115.621168,33.92735,-118.41591,160.8695642
Walnut Creek,Contra Costa,23108,94597,37.918191,-122.071665,33.92735,-118.41591,343.6234351
Tustin,Orange,23084,92782,33.739709,-117.784703,33.92735,-118.41591,38.51802504
Santa Monica,Los Angeles,22929,90404,34.026608,-118.473643,33.92735,-118.41591,7.622310296
Sunnyvale,Santa Clara,22882,94089,37.412402,-122.015605,33.92735,-118.41591,314.6149735
San Pedro,Los Angeles,22780,90732,33.74212,-118.312878,33.92735,-118.41591,14.11330658
Lathrop,San Joaquin,22760,95330,37.808915,-121.312639,33.92735,-118.41591,313.7112413
Chowchilla,Madera,22724,93610,37.098303,-120.281212,33.92735,-118.41591,243.1576794
Arvin,Kern,22662,93203,35.112617,-118.832292,33.92735,-118.41591,85.34662506
Los Angeles,Los Angeles,22651,90015,34.039378,-118.2663,33.92735,-118.41591,11.56157378
Millbrae,San Mateo,22625,94030,37.59897,-122.401991,33.92735,-118.41591,338.3689982
Coronado,San Diego,22548,92118,32.699234,-117.209642,33.92735,-118.41591,109.8943749
Blythe,Riverside,22460,92225,33.736458,-114.687973,33.92735,-118.41591,214.5855002
San Diego,San Diego,22280,92108,32.774046,-117.142454,33.92735,-118.41591,108.5192451
Los Alamitos,Orange,22261,90720,33.795012,-118.062692,33.92735,-118.41591,22.25677024
Shafter,Kern,22210,93263,35.492805,-119.286861,33.92735,-118.41591,119.063736
Loma Linda,San Bernardino,22050,92354,34.051177,-117.248563,33.92735,-118.41591,67.49215664
San Jose,Santa Clara,22015,95135,37.284529,-121.658321,33.92735,-118.41591,295.196402
Dixon,Solano,21954,95620,38.412615,-121.756222,33.92735,-118.41591,361.9147383
Newport Beach,Orange,21951,92663,33.623208,-117.933903,33.92735,-118.41591,34.79239761
Sun City,Riverside,21907,92585,33.746707,-117.172142,33.92735,-118.41591,72.54079971
San Leandro,Alameda,21883,94579,37.686491,-122.157201,33.92735,-118.41591,334.0699112
Rosamond,Kern,21756,93560,34.866894,-118.339832,33.92735,-118.41591,65.1306987
Walnut Creek,Contra Costa,21700,94596,37.889098,-122.037553,33.92735,-118.41591,340.8931011
Berkeley,Alameda,21697,94703,37.863911,-122.275643,33.92735,-118.41591,347.6424462
Pacific Palisades,Los Angeles,21629,90272,34.08746,-118.544232,33.92735,-118.41591,13.29575234
Sacramento,Sacramento,21625,95818,38.554487,-121.497058,33.92735,-118.41591,363.2220371
Riverside,Riverside,21590,92501,33.99504,-117.373184,33.92735,-118.41591,60.00236055
Whittier,Los Angeles,21584,90603,33.945555,-117.990719,33.92735,-118.41591,24.43213764
Lomita,Los Angeles,21508,90717,33.793809,-118.31717,33.92735,-118.41591,10.83879606
Los Angeles,Los Angeles,21489,90048,34.072924,-118.37271,33.92735,-118.41591,10.36921883
Pasadena,Los Angeles,21395,91101,34.146671,-118.139455,33.92735,-118.41591,21.93648293
Nipomo,San Luis Obispo,21331,93444,35.037198,-120.504593,33.92735,-118.41591,141.6783887
Sacramento,Sacramento,21229,95841,38.66037,-121.347394,33.92735,-118.41591,365.8382178
Albany,Alameda,21218,94706,37.889704,-122.295531,33.92735,-118.41591,349.7092443
San Francisco,San Francisco,21151,94127,37.73622,-122.459338,33.92735,-118.41591,347.5080521
Los Angeles,Los Angeles,21092,90068,34.129772,-118.330989,33.92735,-118.41591,14.82311728
Santa Rosa,Sonoma,21082,95405,38.437114,-122.665993,33.92735,-118.41591,391.8080319
Arcata,Humboldt,21068,95521,40.855694,-124.066898,33.92735,-118.41591,570.7294209
Grass Valley,Nevada,21036,95949,39.09923,-121.138848,33.92735,-118.41591,388.3787923
Kerman,Fresno,20764,93630,36.72725,-120.123426,33.92735,-118.41591,216.2976886
San Jose,Santa Clara,20674,95138,37.246623,-121.733833,33.92735,-118.41591,295.8250182
Sacramento,Sacramento,20666,95827,38.556129,-121.324257,33.92735,-118.41591,358.8683265
Orange,Orange,20664,92865,33.826393,-117.851307,33.92735,-118.41591,33.16592366
Santa Barbara,Santa Barbara,20538,93103,34.438773,-119.678841,33.92735,-118.41591,80.45558007
Half Moon Bay,San Mateo,20512,94019,37.469453,-122.411841,33.92735,-118.41591,332.1989187
Burbank,Los Angeles,20511,91501,34.2044,-118.287527,33.92735,-118.41591,20.52621493
Oroville,Butte,20498,95965,39.593945,-121.581363,33.92735,-118.41591,429.3221982
Anaheim,Orange,20483,92808,33.856459,-117.740176,33.92735,-118.41591,39.10597791
Rialto,San Bernardino,20476,92377,34.157763,-117.405966,33.92735,-118.41591,60.03713982
La Canada Flintridge,Los Angeles,20301,91011,34.222119,-118.205306,33.92735,-118.41591,23.6911824
American Canyon,Napa,20276,94503,38.186532,-122.264069,33.92735,-118.41591,364.7293251
Westlake Village,Ventura,20258,91361,34.136077,-118.888919,33.92735,-118.41591,30.7174096
Lakewood,Los Angeles,20256,90715,33.841027,-118.079141,33.92735,-118.41591,20.2382089
West Hollywood,Los Angeles,20230,90069,34.093828,-118.381697,33.92735,-118.41591,11.68073973
San Diego,San Diego,20155,92106,32.710818,-117.237613,33.92735,-118.41591,108.2490876
Tracy,San Joaquin,20131,95391,37.768218,-121.609509,33.92735,-118.41591,320.3156987
Susanville,Lassen,20119,96130,40.551757,-120.675673,33.92735,-118.41591,474.7385573
Palm Springs,Riverside,20072,92264,33.708592,-116.497622,33.92735,-118.41591,111.266212
Sunland,Los Angeles,20049,91040,34.261962,-118.336078,33.92735,-118.41591,23.59162751
Concord,Contra Costa,20041,94519,37.988451,-122.013001,33.92735,-118.41591,345.5615428
Yorba Linda,Orange,20012,92887,33.885514,-117.730164,33.92735,-118.41591,39.47170047
San Jose,Santa Clara,19928,95110,37.346512,-121.909803,33.92735,-118.41591,307.3627158
Ojai,Ventura,19895,93023,34.530199,-119.310133,33.92735,-118.41591,65.98286615
Sacramento,Sacramento,19890,95819,38.569828,-121.440067,33.92735,-118.41591,362.6618069
Mckinleyville,Humboldt,19763,95519,40.959368,-124.051236,33.92735,-118.41591,576.1786306
Long Beach,Los Angeles,19685,90814,33.771616,-118.143631,33.92735,-118.41591,18.99110223
North Hollywood,Los Angeles,19672,91602,34.150818,-118.368159,33.92735,-118.41591,15.69713833
Orinda,Contra Costa,19644,94563,37.87992,-122.184572,33.92735,-118.41591,345.3574139
Irvine,Orange,19558,92603,33.624456,-117.781423,33.92735,-118.41591,42.06664443
Hermosa Beach,Los Angeles,19539,90254,33.864259,-118.399303,33.92735,-118.41591,4.466785368
Sun City,Riverside,19472,92586,33.708982,-117.198853,33.92735,-118.41591,71.54983373
Los Altos,Santa Clara,19406,94022,37.357489,-122.144437,33.92735,-118.41591,316.5044923
Stevenson Ranch,Los Angeles,19390,91381,34.384697,-118.647244,33.92735,-118.41591,34.29279274
Escondido,San Diego,19382,92029,33.0824,-117.127641,33.92735,-118.41591,94.5293835
Beverly Hills,Los Angeles,19314,90210,34.100517,-118.414712,33.92735,-118.41591,11.97770779
Pinole,Contra Costa,19260,94564,37.994038,-122.282589,33.92735,-118.41591,354.8597906
Santa Clarita,Los Angeles,19168,91390,34.545587,-118.420095,33.92735,-118.41591,42.76251439
Mission Hills,Los Angeles,19145,91345,34.265879,-118.456748,33.92735,-118.41591,23.53171171
Novato,Marin,19043,94945,38.134068,-122.52719,33.92735,-118.41591,370.7803261
Bonita,San Diego,18896,91902,32.665762,-117.018657,33.92735,-118.41591,118.9076342
Greenfield,Monterey,18812,93927,36.248797,-121.386631,33.92735,-118.41591,232.4652902
Taft,Kern,18731,93268,35.162393,-119.425116,33.92735,-118.41591,102.9703134
Glendale,Los Angeles,18723,91204,34.136194,-118.260934,33.92735,-118.41591,16.95811497
Valley Center,San Diego,18705,92082,33.253548,-117.003366,33.92735,-118.41591,93.78493777
Novato,Marin,18695,94949,38.060475,-122.508496,33.92735,-118.41591,366.2154272
Burbank,Los Angeles,18591,91506,34.169706,-118.323548,33.92735,-118.41591,17.57898826
Covina,Los Angeles,18521,91723,34.084747,-117.886844,33.92735,-118.41591,32.23002907
Truckee,Nevada,18488,96161,39.313089,-120.207783,33.92735,-118.41591,385.5448627
Nevada City,Nevada,18343,95959,39.347811,-120.918728,33.92735,-118.41591,399.7764438
Coalinga,Fresno,18336,93210,36.197785,-120.422249,33.92735,-118.41591,193.8027881
Phelan,San Bernardino,18269,92371,34.442625,-117.541815,33.92735,-118.41591,61.41251708
Lindsay,Tulare,18234,93247,36.206269,-119.071075,33.92735,-118.41591,161.930488
Rancho Mirage,Riverside,18193,92270,33.768584,-116.429988,33.92735,-118.41591,114.6063627
Alpine,San Diego,18162,91901,32.808563,-116.710076,33.92735,-118.41591,125.2881199
Walnut Creek,Contra Costa,18117,94595,37.87195,-122.069383,33.92735,-118.41591,341.0202477
Fillmore,Ventura,17989,93015,34.404104,-118.897776,33.92735,-118.41591,42.98723128
Malibu,Los Angeles,17954,90265,34.066117,-118.846342,33.92735,-118.41591,26.4834005
Ripon,San Joaquin,17909,95366,37.762766,-121.125277,33.92735,-118.41591,305.6610438
Torrance,Los Angeles,17778,90502,33.833181,-118.292062,33.92735,-118.41591,9.643724057
Auburn,Placer,17557,95602,38.99003,-121.114408,33.92735,-118.41591,380.9410298
Healdsburg,Sonoma,17407,95448,38.622985,-122.889121,33.92735,-118.41591,409.3901051
Chula Vista,San Diego,17379,91914,32.674004,-116.943932,33.92735,-118.41591,121.4730505
Santa Barbara,Santa Barbara,17329,93111,34.449185,-119.804782,33.92735,-118.41591,87.27624748
Oakland,Alameda,17252,94618,37.844672,-122.238105,33.92735,-118.41591,345.3111822
Sun City,Riverside,17237,92587,33.694019,-117.250341,33.92735,-118.41591,68.90140123
San Jacinto,Riverside,17219,92582,33.807607,-117.015163,33.92735,-118.41591,80.87181953
Sacramento,Sacramento,17199,95816,38.571577,-121.466465,33.92735,-118.41591,363.4539521
King City,Monterey,17067,93930,36.20506,-121.010363,33.92735,-118.41591,215.3719809
Livingston,Merced,17057,95334,37.347307,-120.742627,33.92735,-118.41591,270.2756863
Berkeley,Alameda,16860,94702,37.865777,-122.286321,33.92735,-118.41591,348.1138211
Santa Barbara,Santa Barbara,16849,93110,34.446201,-119.762794,33.92735,-118.41591,85.00874015
Artesia,Los Angeles,16801,90701,33.8676,-118.080612,33.92735,-118.41591,19.68857816
El Segundo,Los Angeles,16731,90245,33.91714,-118.404267,33.92735,-118.41591,0.972251138
Santa Fe Springs,Los Angeles,16700,90670,33.933565,-118.062611,33.92735,-118.41591,20.28011991
Carpinteria,Santa Barbara,16652,93013,34.44137,-119.514092,33.92735,-118.41591,72.19575871
Rio Linda,Sacramento,16636,95673,38.689241,-121.459014,33.92735,-118.41591,370.4147012
Palo Alto,Santa Clara,16582,94301,37.444123,-122.149911,33.92735,-118.41591,321.1444922
Fresno,Fresno,16574,93728,36.757294,-119.818488,33.92735,-118.41591,211.1232484
Los Osos,San Luis Obispo,16562,93402,35.295232,-120.835468,33.92735,-118.41591,167.0925989
Moraga,Contra Costa,16428,94556,37.840645,-122.114877,33.92735,-118.41591,340.8582904
Stanford,Santa Clara,16397,94305,37.418256,-122.170871,33.92735,-118.41591,320.5876479
Lamont,Kern,16397,93241,35.254701,-118.912678,33.92735,-118.41591,96.06761299
Foothill Ranch,Orange,16360,92610,33.696122,-117.67594,33.92735,-118.41591,45.43336066
Kingsburg,Fresno,16282,93631,36.478239,-119.52137,33.92735,-118.41591,187.1693683
Garden Grove,Orange,16273,92845,33.783064,-118.026268,33.92735,-118.41591,24.50523496
Valley Springs,Calaveras,16262,95252,38.149816,-120.84667,33.92735,-118.41591,322.1146737
Cottonwood,Shasta,16253,96022,40.336387,-122.448511,33.92735,-118.41591,495.7955946
Mc Farland,Kern,16191,93250,35.665082,-119.197958,33.92735,-118.41591,128.1383423
Parlier,Fresno,16087,93648,36.620634,-119.520731,33.92735,-118.41591,196.4519187
Laguna Hills,Orange,16053,92637,33.612925,-117.731443,33.92735,-118.41591,44.96402427
Corning,Tehama,16017,96021,39.923446,-122.270806,33.92735,-118.41591,466.1760818
San Anselmo,Marin,15868,94960,37.995864,-122.577814,33.92735,-118.41591,365.2592176
Glendale,Los Angeles,15860,91208,34.185666,-118.239494,33.92735,-118.41591,20.52876995
Oakland,Alameda,15785,94612,37.8088,-122.269196,33.92735,-118.41591,344.4878197
Clearlake,Lake,15696,95422,38.973012,-122.623922,33.92735,-118.41591,420.1276013
La Palma,Orange,15662,90623,33.850616,-118.039565,33.92735,-118.41591,22.25092751
Orange,Orange,15574,92866,33.784615,-117.844774,33.92735,-118.41591,34.25900293
Pacific Grove,Monterey,15547,93950,36.621181,-121.925179,33.92735,-118.41591,271.9612947
Orland,Glenn,15492,95963,39.736308,-122.259338,33.92735,-118.41591,454.5325311
Stockton,San Joaquin,15487,95203,37.952452,-121.329655,33.92735,-118.41591,322.6517783
Glendale,Los Angeles,15410,91203,34.153338,-118.262974,33.92735,-118.41591,17.9210146
Scotts Valley,Santa Cruz,15341,95066,37.067917,-122.013995,33.92735,-118.41591,296.9999501
Thermal,Riverside,15317,92274,33.460512,-116.084589,33.92735,-118.41591,137.9906628
Encino,Los Angeles,15292,91436,34.149588,-118.489708,33.92735,-118.41591,15.94296968
Alamo,Contra Costa,15105,94507,37.850411,-122.021124,33.92735,-118.41591,338.2267871
Inglewood,Los Angeles,15042,90305,33.95889,-118.330548,33.92735,-118.41591,5.361980737
Castro Valley,Alameda,14938,94552,37.72272,-122.021552,33.92735,-118.41591,331.3010919
Fort Bragg,Mendocino,14859,95437,39.487185,-123.741963,33.92735,-118.41591,484.6700047
Loomis,Placer,14808,95650,38.809175,-121.171375,33.92735,-118.41591,370.8492472
Culver City,Los Angeles,14780,90232,34.019323,-118.391902,33.92735,-118.41591,6.508880713
Alameda,Alameda,14701,94502,37.737572,-122.245507,33.92735,-118.41591,339.8864785
Hayward,Alameda,14699,94542,37.659883,-122.037142,33.92735,-118.41591,328.4589105
San Jose,Santa Clara,14660,95130,37.277121,-121.986133,33.92735,-118.41591,306.5341333
Mountain View,Santa Clara,14572,94041,37.38852,-122.075726,33.92735,-118.41591,315.5609541
Delhi,Merced,14520,95315,37.4219,-120.769283,33.92735,-118.41591,275.4876139
West Sacramento,Yolo,14493,95605,38.593521,-121.539867,33.92735,-118.41591,366.7085521
Littlerock,Los Angeles,14392,93543,34.481108,-117.982006,33.92735,-118.41591,45.64118907
Hawaiian Gardens,Los Angeles,14285,90716,33.830482,-118.073451,33.92735,-118.41591,20.77539975
Tracy,San Joaquin,14282,95304,37.671103,-121.406559,33.92735,-118.41591,308.5017401
Fortuna,Humboldt,14196,95540,40.578828,-124.136869,33.92735,-118.41591,557.252114
Richmond,Contra Costa,14188,94805,37.942798,-122.322923,33.92735,-118.41591,353.4940331
Bishop,Inyo,14175,93514,37.492115,-118.390408,33.92735,-118.41591,246.5696769
San Francisco,San Francisco,14143,94108,37.792007,-122.408575,33.92735,-118.41591,348.5569531
Exeter,Tulare,14129,93221,36.295014,-119.026031,33.92735,-118.41591,167.3629039
Winton,Merced,14116,95388,37.41467,-120.586787,33.92735,-118.41591,270.2757423
Salida,Stanislaus,14041,95368,37.713269,-121.085404,33.92735,-118.41591,301.6040648
Oak Park,Ventura,13853,91377,34.184975,-118.766918,33.92735,-118.41591,26.87209177
California City,Kern,13774,93505,35.16374,-117.886527,33.92735,-118.41591,90.67982365
Sacramento,Sacramento,13758,95817,38.550547,-121.456373,33.92735,-118.41591,361.9164874
Clayton,Contra Costa,13687,94517,37.890217,-121.878354,33.92735,-118.41591,335.7302541
San Bernardino,San Bernardino,13635,92408,34.083458,-117.270016,33.92735,-118.41591,66.5850222
Del Mar,San Diego,13568,92014,32.963199,-117.250309,33.92735,-118.41591,94.72300964
Grover Beach,San Luis Obispo,13535,93433,35.120888,-120.619664,33.92735,-118.41591,150.2809334
Berkeley,Alameda,13527,94705,37.865183,-122.238209,33.92735,-118.41591,346.4112208
Los Gatos,Santa Clara,13481,95030,37.222759,-121.983272,33.92735,-118.41591,303.6423873
San Marino,Los Angeles,13375,91108,34.122671,-118.112911,33.92735,-118.41591,22.00492592
Beverly Hills,Los Angeles,13314,90212,34.06221,-118.401966,33.92735,-118.41591,9.362126558
Newman,Stanislaus,13278,95360,37.325955,-121.193383,33.92735,-118.41591,282.1758273
Greenbrae,Marin,12994,94904,37.945512,-122.56012,33.92735,-118.41591,361.9973392
Willits,Mendocino,12975,95490,39.492842,-123.340973,33.92735,-118.41591,471.797906
Avenal,Kings,12961,93204,35.889811,-120.06859,33.92735,-118.41591,164.9555663
Mendota,Fresno,12920,93640,36.672683,-120.446521,33.92735,-118.41591,221.7885192
Carmel,Monterey,12837,93923,36.448672,-121.849502,33.92735,-118.41591,260.8961657
Escalon,San Joaquin,12822,95320,37.825598,-121.005157,33.92735,-118.41591,306.1656342
Solana Beach,San Diego,12752,92075,32.997248,-117.26058,33.92735,-118.41591,92.6431777
Belvedere Tiburon,Marin,12740,94920,37.885629,-122.46858,33.92735,-118.41591,355.5945178
Playa Del Rey,Los Angeles,12728,90293,33.947305,-118.439841,33.92735,-118.41591,1.94702995
Pasadena,Los Angeles,12617,91105,34.13946,-118.166649,33.92735,-118.41591,20.47866601
Los Angeles,Los Angeles,12559,90013,34.045405,-118.240454,33.92735,-118.41591,12.95892247
Grand Terrace,San Bernardino,12547,92313,34.031011,-117.312929,33.92735,-118.41591,63.6677307
Rancho Cordova,Sacramento,12472,95742,38.577783,-121.201788,33.92735,-118.41591,357.1749041
Redwood City,San Mateo,12461,94065,37.534106,-122.247372,33.92735,-118.41591,329.3491768
Salinas,Monterey,12398,93908,36.651745,-121.599444,33.92735,-118.41591,260.3760731
Corona Del Mar,Orange,12394,92625,33.601966,-117.864254,33.92735,-118.41591,38.89355432
Magalia,Butte,12371,95954,39.884654,-121.586789,33.92735,-118.41591,447.7330116
Los Angeles,Los Angeles,12328,90040,33.994523,-118.149952,33.92735,-118.41591,15.94940049
Bakersfield,Kern,12325,93301,35.384336,-119.020562,33.92735,-118.41591,106.4854072
Sacramento,Sacramento,12114,95832,38.44705,-121.496114,33.92735,-118.41591,356.7258212
Coarsegold,Madera,11982,93614,37.209821,-119.749802,33.92735,-118.41591,239.1135817
Berkeley,Alameda,11951,94709,37.879234,-122.266839,33.92735,-118.41591,348.1541424
Gridley,Butte,11917,95948,39.339264,-121.770785,33.92735,-118.41591,418.0001843
Sacramento,Sacramento,11908,95814,38.580568,-121.49559,33.92735,-118.41591,364.7598762
Santa Monica,Los Angeles,11882,90402,34.034666,-118.504039,33.92735,-118.41591,8.980368328
Berkeley,Alameda,11767,94707,37.898189,-122.27913,33.92735,-118.41591,349.593062
Modesto,Stanislaus,11765,95357,37.672536,-120.887136,33.92735,-118.41591,293.7771068
Camp Pendleton,San Diego,11765,92055,33.387723,-117.444758,33.92735,-118.41591,67.22472876
Orange Cove,Fresno,11738,93646,36.644737,-119.289181,33.92735,-118.41591,194.3109094
Gardena,Los Angeles,11607,90248,33.878432,-118.284104,33.92735,-118.41591,8.288738556
Kelseyville,Lake,11603,95451,38.922131,-122.789559,33.92735,-118.41591,422.4867454
Ione,Amador,11598,95640,38.325248,-120.955787,33.92735,-118.41591,335.619293
Cardiff By The Sea,San Diego,11417,92007,33.02325,-117.274923,33.92735,-118.41591,90.79451734
Orosi,Tulare,11407,93647,36.60076,-119.175485,33.92735,-118.41591,189.8211504
Sausalito,Marin,11394,94965,37.852904,-122.547207,33.92735,-118.41591,356.725745
Berkeley,Alameda,11394,94708,37.902944,-122.261795,33.92735,-118.41591,349.2482428
Big Bear City,San Bernardino,11385,92314,34.261092,-116.809496,33.92735,-118.41591,94.86352507
Lakeport,Lake,11369,95453,39.045931,-122.941077,33.92735,-118.41591,434.2191176
Glendale,Los Angeles,11031,91207,34.181293,-118.260277,33.92735,-118.41591,19.69914775
Soquel,Santa Cruz,11013,95073,37.042254,-121.930051,33.92735,-118.41591,292.5103159
Cloverdale,Sonoma,10984,95425,38.823058,-123.063891,33.92735,-118.41591,426.083777
Sierra Madre,Los Angeles,10932,91024,34.168771,-118.050216,33.92735,-118.41591,26.79682399
Live Oak,Sutter,10925,95953,39.259022,-121.776826,33.92735,-118.41591,413.2346163
Morro Bay,San Luis Obispo,10917,93442,35.401934,-120.799362,33.92735,-118.41591,169.6616273
San Francisco,San Francisco,10916,94105,37.789864,-122.393665,33.92735,-118.41591,347.9096946
Mariposa,Mariposa,10827,95338,37.508765,-119.982496,33.92735,-118.41591,262.8626079
Castroville,Monterey,10780,95012,36.784482,-121.759054,33.92735,-118.41591,273.1268206
Santa Barbara,Santa Barbara,10771,93109,34.406428,-119.726888,33.92735,-118.41591,82.0174631
Farmersville,Tulare,10716,93223,36.304539,-119.204896,33.92735,-118.41591,170.3737132
Burbank,Los Angeles,10708,91502,34.176817,-118.309323,33.92735,-118.41591,18.30421893
Nuevo,Riverside,10648,92567,33.810743,-117.105415,33.92735,-118.41591,75.69293253
Rio Vista,Solano,10605,94571,38.148862,-121.737696,33.92735,-118.41591,346.0240469
Waterford,Stanislaus,10557,95386,37.667405,-120.629404,33.92735,-118.41591,286.9255429
Spring Valley,San Diego,10506,91978,32.724154,-116.940093,33.92735,-118.41591,119.1637519
Winters,Yolo,10495,95694,38.568866,-122.079781,33.92735,-118.41591,380.4890888
Santa Cruz,Santa Cruz,10486,95064,36.991107,-122.059022,33.92735,-118.41591,294.9637989
Colfax,Placer,10472,95713,39.111833,-120.877969,33.92735,-118.41591,383.7800098
Santa Barbara,Santa Barbara,10401,93108,34.448024,-119.616984,33.92735,-118.41591,77.58398655
Rodeo,Contra Costa,10384,94572,38.032793,-122.252211,33.92735,-118.41591,355.9277687
Gustine,Merced,10373,95322,37.166199,-121.024432,33.92735,-118.41591,267.8076281
Firebaugh,Fresno,10335,93622,36.814503,-120.57524,33.92735,-118.41591,233.8857771
Earlimart,Tulare,10285,93219,35.873666,-119.281551,33.92735,-118.41591,143.2960276
Shasta Lake,Shasta,10178,96019,40.676564,-122.380909,33.92735,-118.41591,515.1294939
Fresno,Fresno,10166,93701,36.749661,-119.787685,33.92735,-118.41591,209.988841
Hughson,Stanislaus,10147,95326,37.588918,-120.855236,33.92735,-118.41591,287.8714738
San Jose,Santa Clara,10027,95119,37.230327,-121.785227,33.92735,-118.41591,296.7998438
Woodlake,Tulare,9906,93286,36.46271,-119.093242,33.92735,-118.41591,179.493068
Fort Irwin,San Bernardino,9872,92310,35.26146,-116.690324,33.92735,-118.41591,134.7853428
Corte Madera,Marin,9838,94925,37.931846,-122.507738,33.92735,-118.41591,359.4103288
Los Angeles,Los Angeles,9827,90094,33.975414,-118.41699,33.92735,-118.41591,3.325039269
Newport Coast,Orange,9802,92657,33.595088,-117.829038,33.92735,-118.41591,40.82895725
Mecca,Riverside,9779,92254,33.543835,-115.993906,33.92735,-118.41591,141.8135209
Yreka,Siskiyou,9746,96097,41.756147,-122.659466,33.92735,-118.41591,588.8145273
Boulder Creek,Santa Cruz,9632,95006,37.171267,-122.149524,33.92735,-118.41591,307.3355162
Mammoth Lakes,Mono,9591,93546,37.548799,-118.839818,33.92735,-118.41591,251.6133314
Los Gatos,Santa Clara,9511,95033,37.160846,-121.983966,33.92735,-118.41591,300.5207189
Joshua Tree,San Bernardino,9351,92252,34.168333,-116.288431,33.92735,-118.41591,123.0576105
Templeton,San Luis Obispo,9202,93465,35.538809,-120.739893,33.92735,-118.41591,172.8314591
Gonzales,Monterey,9171,93926,36.52587,-121.396735,33.92735,-118.41591,246.2824849
Mentone,San Bernardino,9170,92359,34.083016,-117.073317,33.92735,-118.41591,77.73147296
Oakhurst,Madera,9055,93644,37.377787,-119.632385,33.92735,-118.41591,248.2504359
Penn Valley,Nevada,8977,95946,39.215586,-121.20324,33.92735,-118.41591,397.1361357
Cotati,Sonoma,8926,94931,38.324133,-122.714633,33.92735,-118.41591,387.4018679
Dos Palos,Merced,8906,93620,37.020043,-120.625404,33.92735,-118.41591,247.464394
Capitola,Santa Cruz,8856,95010,36.976175,-121.95316,33.92735,-118.41591,290.1101128
Saint Helena,Napa,8757,94574,38.542448,-122.419923,33.92735,-118.41591,389.5142848
Calimesa,Riverside,8753,92320,33.990372,-117.052255,33.92735,-118.41591,78.35382511
Fairfax,Marin,8728,94930,37.943963,-122.616418,33.92735,-118.41591,363.9437614
Los Angeles,Los Angeles,8688,90014,34.043146,-118.251746,33.92735,-118.41591,12.36101467
Holtville,Imperial,8655,92250,32.777241,-115.127641,33.92735,-118.41591,205.9512068
Montrose,Los Angeles,8633,91020,34.211341,-118.230652,33.92735,-118.41591,22.32734392
Jamul,San Diego,8550,91935,32.721919,-116.788204,33.92735,-118.41591,125.6991545
Santa Cruz,Santa Cruz,8491,95065,37.031475,-121.98334,33.92735,-118.41591,294.0122521
Pollock Pines,El Dorado,8449,95726,38.800349,-120.503871,33.92735,-118.41591,356.5210787
Midway City,Orange,8382,92655,33.74513,-117.984873,33.92735,-118.41591,27.78701056
Los Angeles,Los Angeles,8382,90077,34.108023,-118.456964,33.92735,-118.41591,12.7163938
Hilmar,Merced,8380,95324,37.394536,-120.890747,33.92735,-118.41591,277.1979939
Willows,Glenn,8298,95988,39.491654,-122.26208,33.92735,-118.41591,439.8933106
Pismo Beach,San Luis Obispo,8180,93449,35.165671,-120.655844,33.92735,-118.41591,153.6831685
Fowler,Fresno,8059,93625,36.624539,-119.671874,33.92735,-118.41591,199.5771217
Beverly Hills,Los Angeles,8019,90211,34.064958,-118.382979,33.92735,-118.41591,9.703516681
Crestline,San Bernardino,7948,92325,34.243482,-117.281304,33.92735,-118.41591,68.57455819
Jamestown,Tuolumne,7918,95327,37.861625,-120.480322,33.92735,-118.41591,295.664789
Solvang,Santa Barbara,7911,93463,34.624395,-120.137875,33.92735,-118.41591,109.5919692
Berkeley,Alameda,7893,94710,37.863914,-122.306465,33.92735,-118.41591,348.7182193
Heber,Imperial,7861,92249,32.725583,-115.47268,33.92735,-118.41591,189.3106585
Homeland,Riverside,7859,92548,33.758663,-117.109484,33.92735,-118.41591,75.95269628
Rancho Santa Fe,San Diego,7724,92067,33.020908,-117.190346,33.92735,-118.41591,94.50005218
Desert Hot Springs,Riverside,7699,92241,33.842584,-116.2929,33.92735,-118.41591,122.0417649
Ben Lomond,Santa Cruz,7661,95005,37.098768,-122.091734,33.92735,-118.41591,301.5214062
Fresno,Fresno,7650,93721,36.732891,-119.783739,33.92735,-118.41591,208.8316704
Los Angeles,Los Angeles,7649,90056,33.988047,-118.370361,33.92735,-118.41591,4.945106803
Acton,Los Angeles,7644,93510,34.450906,-118.227614,33.92735,-118.41591,37.78151106
Colusa,Colusa,7633,95932,39.266469,-121.978604,33.92735,-118.41591,418.8535249
Acampo,San Joaquin,7576,95220,38.200231,-121.235034,33.92735,-118.41591,334.9028881
Calipatria,Imperial,7509,92233,33.172881,-115.553769,33.92735,-118.41591,173.0347189
Calistoga,Napa,7491,94515,38.634822,-122.615051,33.92735,-118.41591,400.9325134
Guadalupe,Santa Barbara,7451,93434,34.919894,-120.604969,33.92735,-118.41591,142.5153336
Atherton,San Mateo,7415,94027,37.453514,-122.204756,33.92735,-118.41591,323.6441259
Freedom,Santa Cruz,7368,95019,36.935538,-121.783134,33.92735,-118.41591,281.569167
San Jose,Santa Clara,7363,95139,37.224914,-121.764075,33.92735,-118.41591,295.7574098
Huron,Fresno,7355,93234,36.191268,-120.090097,33.92735,-118.41591,183.035329
Oak View,Ventura,7179,93022,34.40778,-119.306554,33.92735,-118.41591,60.84567414
Portola Valley,San Mateo,7125,94028,37.376828,-122.209796,33.92735,-118.41591,319.9250989
Santa Monica,Los Angeles,7111,90401,34.013666,-118.49375,33.92735,-118.41591,7.455256287
Oceano,San Luis Obispo,7106,93445,35.044396,-120.620199,33.92735,-118.41591,147.5165193
Jackson,Amador,7101,95642,38.343033,-120.760921,33.92735,-118.41591,332.2938052
Mount Shasta,Siskiyou,7094,96067,41.314337,-122.380798,33.92735,-118.41591,555.0249631
Wilton,Sacramento,7037,95693,38.399281,-121.210116,33.92735,-118.41591,346.390141
Denair,Stanislaus,7022,95316,37.553376,-120.714055,33.92735,-118.41591,282.0167328
Foresthill,Placer,6851,95631,39.053461,-120.795632,33.92735,-118.41591,378.407512
Felton,Santa Cruz,6841,95018,37.074092,-122.059372,33.92735,-118.41591,299.0526277
Newcastle,Placer,6837,95658,38.881183,-121.169014,33.92735,-118.41591,375.3056451
Strathmore,Tulare,6788,93267,36.15118,-119.049222,33.92735,-118.41591,157.9412743
Thousand Palms,Riverside,6748,92276,33.82233,-116.364238,33.92735,-118.41591,118.042522
Larkspur,Marin,6747,94939,37.937082,-122.532369,33.92735,-118.41591,360.5637509
Palmdale,Los Angeles,6744,93591,34.59448,-117.813666,33.92735,-118.41591,57.57138933
Helendale,San Bernardino,6737,92342,34.757047,-117.350142,33.92735,-118.41591,83.65349627
Weed,Siskiyou,6611,96094,41.456579,-122.469367,33.92735,-118.41591,565.883253
Lucerne Valley,San Bernardino,6573,92356,34.510646,-116.896718,33.92735,-118.41591,95.79718319
Carmel Valley,Monterey,6514,93924,36.415603,-121.637651,33.92735,-118.41591,250.5701617
Capistrano Beach,Orange,6372,92624,33.451469,-117.659056,33.92735,-118.41591,54.59559889
Cutler,Tulare,6347,93615,36.503322,-119.286328,33.92735,-118.41591,184.8350685
Lake Isabella,Kern,6327,93240,35.617546,-118.452285,33.92735,-118.41591,116.9247225
Sloughhouse,Sacramento,6326,95683,38.511992,-121.096261,33.92735,-118.41591,350.563934
Forestville,Sonoma,6240,95436,38.486817,-122.90562,33.92735,-118.41591,402.6719507
Buellton,Santa Barbara,6200,93427,34.610436,-120.219523,33.92735,-118.41591,113.4032137
Pinon Hills,San Bernardino,6071,92372,34.447894,-117.623946,33.92735,-118.41591,57.87503122
Stockton,San Joaquin,6066,95202,37.959736,-121.288287,33.92735,-118.41591,321.9203845
Elverta,Sacramento,6065,95626,38.733145,-121.468174,33.92735,-118.41591,373.3265487
Williams,Colusa,5950,95987,39.105127,-122.283003,33.92735,-118.41591,417.5898611
Quincy,Plumas,5924,95971,39.940063,-120.891328,33.92735,-118.41591,437.7699533
San Martin,Santa Clara,5918,95046,37.099308,-121.59924,33.92735,-118.41591,283.2533898
Cambria,San Luis Obispo,5859,93428,35.585018,-121.041461,33.92735,-118.41591,188.1549996
Villa Park,Orange,5822,92861,33.81763,-117.810046,33.92735,-118.41591,35.61170932
Riverdale,Fresno,5806,93656,36.450225,-119.934478,33.92735,-118.41591,194.4635162
Diamond Springs,El Dorado,5718,95619,38.680605,-120.814261,33.92735,-118.41591,354.8721976
Topanga,Los Angeles,5681,90290,34.107753,-118.616219,33.92735,-118.41591,16.95813799
Lake Arrowhead,San Bernardino,5578,92352,34.259971,-117.199381,33.92735,-118.41591,73.38080716
Redwood Valley,Mendocino,5561,95470,39.31403,-123.249924,33.92735,-118.41591,458.9945352
Camino,El Dorado,5498,95709,38.750132,-120.675412,33.92735,-118.41591,356.5086308
San Andreas,Calaveras,5444,95249,38.189115,-120.638708,33.92735,-118.41591,319.8772044
Pixley,Tulare,5431,93256,35.960636,-119.312992,33.92735,-118.41591,149.5495581
Arbuckle,Colusa,5380,95912,39.016702,-122.062143,33.92735,-118.41591,406.1652453
Terra Bella,Tulare,5367,93270,35.952426,-119.072843,33.92735,-118.41591,144.9360608
Needles,San Bernardino,5348,92363,34.894366,-114.640335,33.92735,-118.41591,225.5735547
Santa Ynez,Santa Barbara,5284,93460,34.653533,-120.007153,33.92735,-118.41591,103.8804841
Rescue,El Dorado,5266,95672,38.722374,-120.978633,33.92735,-118.41591,361.0545948
Alturas,Modoc,5262,96101,41.452711,-120.53846,33.92735,-118.41591,533.2657889
Wheatland,Yuba,5251,95692,39.046931,-121.403091,33.92735,-118.41591,391.07115
Big Bear Lake,San Bernardino,5247,92315,34.232796,-116.902863,33.92735,-118.41591,89.21636768
Caruthers,Fresno,5177,93609,36.526597,-119.864103,33.92735,-118.41591,197.5201869
Guerneville,Sonoma,5168,95446,38.527164,-123.007892,33.92735,-118.41591,408.3688819
French Camp,San Joaquin,5165,95231,37.873793,-121.290146,33.92735,-118.41591,316.8831818
Pioneer,Amador,5164,95666,38.523861,-120.376629,33.92735,-118.41591,336.1999102
Bonsall,San Diego,5160,92003,33.285274,-117.197777,33.92735,-118.41591,83.04424274
Temecula,Riverside,5154,92590,33.482811,-117.226126,33.92735,-118.41591,75.04810083
Indian Wells,Riverside,5138,92210,33.692217,-116.341248,33.92735,-118.41591,120.3336755
Meadow Vista,Placer,5123,95722,39.009801,-121.034707,33.92735,-118.41591,380.4745075
Angels Camp,Calaveras,5029,95222,38.072109,-120.631346,33.92735,-118.41591,312.3099189
Twentynine Palms,San Bernardino,4890,92278,34.229973,-116.055053,33.92735,-118.41591,136.8584257
Brea,Orange,4872,92823,33.928179,-117.809285,33.92735,-118.41591,34.8148662
Burney,Shasta,4819,96013,40.973657,-121.692399,33.92735,-118.41591,519.4103602
Mojave,Kern,4802,93501,35.067111,-118.184941,33.92735,-118.41591,79.92611913
Frazier Park,Kern,4782,93225,34.768503,-119.030293,33.92735,-118.41591,67.94020395
Planada,Merced,4775,95365,37.331113,-120.294817,33.92735,-118.41591,258.0238291
San Diego,San Diego,4729,92121,32.899592,-117.201203,33.92735,-118.41591,99.8572713
Tipton,Tulare,4707,93272,36.047414,-119.344304,33.92735,-118.41591,155.788513
Brisbane,San Mateo,4697,94005,37.688826,-122.408935,33.92735,-118.41591,343.2263084
Shingletown,Shasta,4690,96088,40.51087,-121.876112,33.92735,-118.41591,493.5257497
Sutter Creek,Amador,4665,95685,38.434483,-120.761659,33.92735,-118.41591,338.1017697
Penngrove,Sonoma,4574,94951,38.320861,-122.646138,33.92735,-118.41591,384.8695159
Wrightwood,San Bernardino,4562,92397,34.374009,-117.628429,33.92735,-118.41591,54.64654394
Anza,Riverside,4557,92539,33.527867,-116.64762,33.92735,-118.41591,105.4062941
Copperopolis,Calaveras,4541,95228,37.90723,-120.688307,33.92735,-118.41591,303.2547936
Montague,Siskiyou,4533,96064,41.754853,-122.365534,33.92735,-118.41591,582.627779
Keyes,Stanislaus,4480,95328,37.558453,-120.90988,33.92735,-118.41591,287.512312
San Miguel,San Luis Obispo,4477,93451,35.886767,-120.608661,33.92735,-118.41591,183.9392053
Running Springs,San Bernardino,4462,92382,34.205287,-117.117403,33.92735,-118.41591,76.84413297
Durham,Butte,4446,95938,39.604713,-121.795288,33.92735,-118.41591,434.9547687
Campo,San Diego,4428,91906,32.654821,-116.465541,33.92735,-118.41591,143.0424289
Cool,El Dorado,4359,95614,38.886238,-120.979699,33.92735,-118.41591,371.4548949
Pine Grove,Amador,4303,95665,38.40065,-120.648462,33.92735,-118.41591,333.546475
Armona,Kings,4273,93202,36.313344,-119.708452,33.92735,-118.41591,180.5028354
Aromas,Monterey,4218,95004,36.874755,-121.630732,33.92735,-118.41591,272.7474488
San Juan Bautista,San Benito,4217,95045,36.825745,-121.518587,33.92735,-118.41591,266.0626015
Ivanhoe,Tulare,4215,93235,36.389827,-119.219896,33.92735,-118.41591,176.2843296
Linden,San Joaquin,4199,95236,38.02973,-121.02389,33.92735,-118.41591,319.0592772
Garden Valley,El Dorado,4188,95633,38.840217,-120.829757,33.92735,-118.41591,365.3870793
Mather,Sacramento,4156,95655,38.549228,-121.278598,33.92735,-118.41591,357.3019628
San Francisco,San Francisco,4136,94129,37.797336,-122.464462,33.92735,-118.41591,350.8503264
San Joaquin,Fresno,4090,93660,36.585446,-120.173897,33.92735,-118.41591,208.9410592
Pebble Beach,Monterey,4028,93953,36.585219,-121.945282,33.92735,-118.41591,271.129512
Murphys,Calaveras,4024,95247,38.138539,-120.452903,33.92735,-118.41591,312.7434434
Chino,San Bernardino,4009,91708,33.952902,-117.639325,33.92735,-118.41591,44.59751612
Tuolumne,Tuolumne,4003,95379,37.939765,-120.188046,33.92735,-118.41591,294.7227097
Palo Cedro,Shasta,3980,96073,40.603066,-122.186657,33.92735,-118.41591,506.1124972
Avalon,Los Angeles,3979,90704,33.399248,-118.435601,33.92735,-118.41591,36.54502654
Angwin,Napa,3935,94508,38.576618,-122.444388,33.92735,-118.41591,392.2031621
Squaw Valley,Fresno,3905,93675,36.724723,-119.192779,33.92735,-118.41591,198.3890686
Los Molinos,Tehama,3866,96055,40.103236,-122.074735,33.92735,-118.41591,472.4350389
Santa Clara,Santa Clara,3862,95053,37.348723,-121.937557,33.92735,-118.41591,308.4765217
Palo Alto,Santa Clara,3852,94304,37.374707,-122.181698,33.92735,-118.41591,318.7679842
Travis Afb,Solano,3842,94535,38.282221,-121.924715,33.92735,-118.41591,359.3422794
Los Angeles,Los Angeles,3822,90010,34.062148,-118.315889,33.92735,-118.41591,10.94665866
Esparto,Yolo,3802,95627,38.734513,-122.025346,33.92735,-118.41591,388.5095196
Los Angeles,Los Angeles,3786,90089,34.020221,-118.286035,33.92735,-118.41591,9.836680955
Clearlake Oaks,Lake,3751,95423,39.064446,-122.626701,33.92735,-118.41591,425.4004148
San Diego,San Diego,3737,92140,32.739496,-117.197401,33.92735,-118.41591,108.2049285
Biggs,Butte,3717,95917,39.409686,-121.756653,33.92735,-118.41591,421.9838569
El Dorado,El Dorado,3665,95623,38.603602,-120.85703,33.92735,-118.41591,350.887131
Lockeford,San Joaquin,3639,95237,38.161879,-121.149837,33.92735,-118.41591,330.3541548
Gerber,Tehama,3629,96035,40.045637,-122.184859,33.92735,-118.41591,471.5186983
Twain Harte,Tuolumne,3611,95383,38.11276,-120.225746,33.92735,-118.41591,306.6689836
San Francisco,San Francisco,3611,94111,37.799367,-122.398407,33.92735,-118.41591,348.5757425
Woodbridge,San Joaquin,3599,95258,38.173556,-121.312247,33.92735,-118.41591,335.350285
Kings Beach,Placer,3585,96143,39.254453,-120.022185,33.92735,-118.41591,379.0861017
Weaverville,Trinity,3570,96093,40.765478,-122.941428,33.92735,-118.41591,534.2426984
Georgetown,El Dorado,3559,95634,38.936904,-120.772283,33.92735,-118.41591,370.4406475
Edwards,Kern,3556,93523,34.957206,-117.827391,33.92735,-118.41591,78.74615063
Groveland,Tuolumne,3541,95321,37.864258,-120.004543,33.92735,-118.41591,286.4709013
Auberry,Fresno,3530,93602,37.028835,-119.316654,33.92735,-118.41591,220.43586
Laton,Fresno,3474,93242,36.442077,-119.727734,33.92735,-118.41591,189.0800029
Hoopa,Humboldt,3466,95546,41.092825,-123.675802,33.92735,-118.41591,573.2365463
Moss Beach,San Mateo,3450,94038,37.526902,-122.512164,33.92735,-118.41591,338.877605
Newport Beach,Orange,3445,92661,33.601984,-117.913001,33.92735,-118.41591,36.64267585
Rio Dell,Humboldt,3401,95562,40.472423,-124.12184,33.92735,-118.41591,550.8564544
Lompoc,Santa Barbara,3387,93437,34.737964,-120.543739,33.92735,-118.41591,133.8402883
Springville,Tulare,3379,93265,36.245404,-118.693313,33.92735,-118.41591,161.1004132
Carmel,Monterey,3316,93921,36.553175,-121.92396,33.92735,-118.41591,268.7727602
Crockett,Contra Costa,3290,94525,38.052951,-122.232094,33.92735,-118.41591,356.3489524
Janesville,Lassen,3267,96114,40.296745,-120.499838,33.92735,-118.41591,455.261633
Portola,Plumas,3266,96122,39.825228,-120.477053,33.92735,-118.41591,423.5443816
Sutter,Sutter,3259,95982,39.172726,-121.805819,33.92735,-118.41591,408.7056431
Northridge,Los Angeles,3257,91330,34.247532,-118.526076,33.92735,-118.41591,23.02773375
Westwood,Lassen,3252,96137,40.270731,-121.039461,33.92735,-118.41591,461.9467015
Lower Lake,Lake,3227,95457,38.882973,-122.53272,33.92735,-118.41591,412.2108279
Somis,Ventura,3220,93066,34.297699,-119.014558,33.92735,-118.41591,42.79544686
Glen Ellen,Sonoma,3213,95442,38.371538,-122.487307,33.92735,-118.41591,382.260379
Fresno,Fresno,3173,93650,36.840813,-119.799812,33.92735,-118.41591,216.0921852
San Quentin,Marin,3155,94964,37.943257,-122.492151,33.92735,-118.41591,359.4536914
Somerset,El Dorado,3129,95684,38.592309,-120.584657,33.92735,-118.41591,344.5580622
Yountville,Napa,3108,94599,38.409878,-122.361511,33.92735,-118.41591,380.2559509
Morongo Valley,San Bernardino,3100,92256,34.077059,-116.606626,33.92735,-118.41591,104.2600223
Aguanga,Riverside,3076,92536,33.492391,-116.837955,33.92735,-118.41591,95.64498099
San Francisco,San Francisco,3008,94130,37.820661,-122.369655,33.92735,-118.41591,348.6636119
Lucerne,Lake,2960,95458,39.161278,-122.745312,33.92735,-118.41591,434.5327674
Los Angeles,Los Angeles,2945,90021,34.029036,-118.23787,33.92735,-118.41591,12.39959722
Hayfork,Trinity,2934,96041,40.525724,-123.193917,33.92735,-118.41591,526.6081325
Browns Valley,Yuba,2915,95918,39.301229,-121.337929,33.92735,-118.41591,405.4908692
Ferndale,Humboldt,2899,95536,40.523099,-124.326421,33.92735,-118.41591,560.1249872
Cayucos,San Luis Obispo,2847,93430,35.484966,-120.944417,33.92735,-118.41591,179.6495149
Berkeley,Alameda,2845,94720,37.873832,-122.254944,33.92735,-118.41591,347.4531835
North Fork,Madera,2783,93643,37.224696,-119.470738,33.92735,-118.41591,235.65716
Newberry Springs,San Bernardino,2733,92365,34.899991,-116.654532,33.92735,-118.41591,120.9411855
Los Angeles,Los Angeles,2718,90058,34.002844,-118.2164,33.92735,-118.41591,12.57998643
Cabazon,Riverside,2705,92230,33.910412,-116.765723,33.92735,-118.41591,94.7221312
Hamilton City,Glenn,2686,95951,39.722512,-122.004433,33.92735,-118.41591,447.2695443
Lake Hughes,Los Angeles,2683,93532,34.689848,-118.533689,33.92735,-118.41591,53.167537
Arnold,Calaveras,2666,95223,38.433968,-119.968436,33.92735,-118.41591,323.5216857
Pauma Valley,San Diego,2660,92061,33.298504,-116.924783,33.92735,-118.41591,96.27606505
Fort Jones,Siskiyou,2653,96032,41.609516,-122.963525,33.92735,-118.41591,586.4230158
Upper Lake,Lake,2650,95485,39.225478,-122.922912,33.92735,-118.41591,443.6596238
Salton City,Imperial,2632,92275,33.292095,-115.844166,33.92735,-118.41591,154.5174112
Julian,San Diego,2593,92036,33.022474,-116.493688,33.92735,-118.41591,127.3398838
Westmorland,Imperial,2591,92281,33.051757,-115.608752,33.92735,-118.41591,172.8767158
Del Rey,Fresno,2582,93616,36.655353,-119.593861,33.92735,-118.41591,200.0598372
Covelo,Mendocino,2580,95428,39.824803,-123.179609,33.92735,-118.41591,485.4719285
Santa Margarita,San Luis Obispo,2578,93453,35.303925,-120.256566,33.92735,-118.41591,141.5707013
La Grange,Stanislaus,2570,95329,37.666587,-120.411517,33.92735,-118.41591,281.8040823
Middletown,Lake,2567,95461,38.752774,-122.557196,33.92735,-118.41591,405.6403581
Le Grand,Merced,2539,95333,37.242232,-120.240442,33.92735,-118.41591,251.1882873
Newport Beach,Orange,2519,92662,33.605086,-117.892319,33.92735,-118.41591,37.45977784
Idyllwild,Riverside,2517,92549,33.768539,-116.753396,33.92735,-118.41591,96.13134153
Mendocino,Mendocino,2508,95460,39.305245,-123.748616,33.92735,-118.41591,475.2063684
Nice,Lake,2505,95464,39.128363,-122.849302,33.92735,-118.41591,435.9019251
Montara,San Mateo,2504,94037,37.554298,-122.496632,33.92735,-118.41591,339.6563747
Penryn,Placer,2493,95663,38.855811,-121.182313,33.92735,-118.41591,374.0187392
Maricopa,Kern,2488,93252,34.710034,-119.243808,33.92735,-118.41591,71.8848482
Three Rivers,Tulare,2479,93271,36.469275,-118.800919,33.92735,-118.41591,177.1593593
Wofford Heights,Kern,2477,93285,35.715258,-118.507027,33.92735,-118.41591,123.7731051
Richgrove,Tulare,2434,93261,35.808535,-119.128083,33.92735,-118.41591,136.2476195
Landers,San Bernardino,2430,92285,34.340222,-116.540435,33.92735,-118.41591,111.1051814
Los Angeles,Los Angeles,2428,90067,34.057597,-118.413998,33.92735,-118.41591,9.00951337
Friant,Fresno,2427,93626,37.043286,-119.691306,33.92735,-118.41591,227.1690794
Tollhouse,Fresno,2405,93667,36.95594,-119.335294,33.92735,-118.41591,215.7875096
Chester,Plumas,2369,96020,40.39796,-121.298528,33.92735,-118.41591,474.8448959
Alviso,Santa Clara,2348,95002,37.438672,-122.011582,33.92735,-118.41591,315.8427512
Trinidad,Humboldt,2338,95570,41.080058,-124.156283,33.92735,-118.41591,586.1641204
Etna,Siskiyou,2327,96027,41.399483,-123.068855,33.92735,-118.41591,575.9750599
Plymouth,Amador,2315,95669,38.482619,-120.899472,33.92735,-118.41591,344.1784434
Borrego Springs,San Diego,2299,92004,33.142077,-116.106046,33.92735,-118.41591,143.8198438
Weldon,Kern,2261,93283,35.592099,-118.297698,33.92735,-118.41591,115.3420929
Gualala,Mendocino,2257,95445,38.83252,-123.472532,33.92735,-118.41591,440.7439552
San Bernardino,San Bernardino,2257,92401,34.104794,-117.29215,33.92735,-118.41591,65.58511141
Sugarloaf,San Bernardino,2248,92386,34.237229,-116.827695,33.92735,-118.41591,93.47306843
Occidental,Sonoma,2244,95465,38.421934,-123.063911,33.92735,-118.41591,404.8334478
Boron,Kern,2244,93516,35.002282,-117.629941,33.92735,-118.41591,86.81445582
Walnut Grove,Sacramento,2215,95690,38.199576,-121.618273,33.92735,-118.41591,345.453072
Yermo,San Bernardino,2195,92398,34.91588,-116.865561,33.92735,-118.41591,111.7990938
Bethel Island,Contra Costa,2161,94511,38.028939,-121.640521,33.92735,-118.41591,336.1872195
Tahoe City,Placer,2147,96145,39.148285,-120.170923,33.92735,-118.41591,374.033966
Dunsmuir,Siskiyou,2126,96025,41.209942,-122.307935,33.92735,-118.41591,546.8856917
Herald,Sacramento,2126,95638,38.313448,-121.123886,33.92735,-118.41591,338.9654698
Laytonville,Mendocino,2107,95454,39.806096,-123.516147,33.92735,-118.41591,494.7560546
San Jose,Santa Clara,2107,95113,37.333694,-121.891002,33.92735,-118.41591,306.0163052
Pine Valley,San Diego,2106,91962,32.735124,-116.415161,33.92735,-118.41591,142.0118226
Chualar,Monterey,2073,93925,36.588003,-121.398912,33.92735,-118.41591,249.4743138
Silverado,Orange,2068,92676,33.752476,-117.612554,33.92735,-118.41591,47.71148181
Tulelake,Siskiyou,2059,96134,41.767323,-121.440546,33.92735,-118.41591,566.767966
Soulsbyville,Tuolumne,2056,95372,37.991289,-120.262791,33.92735,-118.41591,299.487069
Bodfish,Kern,2030,93205,35.518295,-118.430032,33.92735,-118.41591,110.0444546
Seeley,Imperial,2010,92273,32.817225,-115.700076,33.92735,-118.41591,174.6484406
Twin Peaks,San Bernardino,1959,92391,34.237898,-117.234788,33.92735,-118.41591,70.98945687
Porterville,Tulare,1952,93258,36.05438,-119.150397,33.92735,-118.41591,152.8931793
Descanso,San Diego,1939,91916,32.887989,-116.621354,33.92735,-118.41591,126.1091561
Herlong,Lassen,1925,96113,40.142933,-120.159007,33.92735,-118.41591,440.5285712
Potter Valley,Mendocino,1911,95469,39.390917,-123.052841,33.92735,-118.41591,457.0102896
Coulterville,Mariposa,1893,95311,37.71426,-120.081389,33.92735,-118.41591,278.0724911
San Diego,San Diego,1883,92145,32.930554,-117.008063,33.92735,-118.41591,106.5716686
Knights Landing,Yolo,1881,95645,38.884891,-121.778654,33.92735,-118.41591,390.5922311
Rough And Ready,Nevada,1877,95975,39.224354,-121.151625,33.92735,-118.41591,396.5860368
Lost Hills,Kern,1875,93249,35.621706,-119.887939,33.92735,-118.41591,143.9703723
Columbia,Tuolumne,1874,95310,38.085839,-120.37855,33.92735,-118.41591,307.8594284
Garberville,Humboldt,1871,95542,40.080405,-123.783948,33.92735,-118.41591,518.4548525
Malibu,Los Angeles,1838,90263,34.039034,-118.707992,33.92735,-118.41591,18.44729397
Piru,Ventura,1827,93040,34.473884,-118.797181,33.92735,-118.41591,43.64328645
Lone Pine,Inyo,1821,93545,36.556387,-118.054221,33.92735,-118.41591,182.9874249
Cazadero,Sonoma,1808,95421,38.628217,-123.160834,33.92735,-118.41591,419.0515147
Smith River,Del Norte,1802,95567,41.950683,-124.097094,33.92735,-118.41591,635.2500786
Prather,Fresno,1798,93651,36.999336,-119.518794,33.92735,-118.41591,221.3736817
Geyserville,Sonoma,1797,95441,38.731694,-122.906767,33.92735,-118.41591,415.8607516
Loyalton,Sierra,1779,96118,39.639597,-120.247144,33.92735,-118.41591,407.8881239
Trona,San Bernardino,1771,93562,35.746463,-117.386604,33.92735,-118.41591,138.7278927
Empire,Stanislaus,1745,95319,37.63929,-120.903049,33.92735,-118.41591,292.1907562
Mokelumne Hill,Calaveras,1717,95245,38.299257,-120.626707,33.92735,-118.41591,326.6225292
Pearblossom,Los Angeles,1709,93553,34.407332,-117.911841,33.92735,-118.41591,43.98116135
Buttonwillow,Kern,1704,93206,35.437302,-119.477735,33.92735,-118.41591,120.6420608
Volcano,Amador,1698,95689,38.478832,-120.611993,33.92735,-118.41591,337.8019954
La Honda,San Mateo,1697,94020,37.274612,-122.23242,33.92735,-118.41591,315.6464096
Winterhaven,Imperial,1684,92283,32.891546,-114.772943,33.92735,-118.41591,222.1878174
Stevinson,Merced,1682,95374,37.316807,-120.855753,33.92735,-118.41591,271.5976141
Ahwahnee,Madera,1674,93601,37.393471,-119.741037,33.92735,-118.41591,251.0333322
Bayside,Humboldt,1668,95524,40.825486,-124.049485,33.92735,-118.41591,568.4930467
Los Alamos,Santa Barbara,1659,93440,34.712216,-120.230146,33.92735,-118.41591,116.9936628
Greenville,Plumas,1657,95947,40.174567,-120.819768,33.92735,-118.41591,451.9672737
Beale Afb,Yuba,1653,95903,39.106099,-121.36818,33.92735,-118.41591,393.9416756
Stockton,San Joaquin,1624,95211,37.97925,-121.313409,33.92735,-118.41591,323.7818112
Big Pine,Inyo,1621,93513,37.131989,-118.15588,33.92735,-118.41591,222.1389685
Redway,Humboldt,1615,95560,40.168801,-123.826148,33.92735,-118.41591,524.6995763
Pilot Hill,El Dorado,1603,95664,38.80129,-121.037936,33.92735,-118.41591,367.3436986
Frazier Park,Kern,1583,93222,34.842425,-119.203723,33.92735,-118.41591,77.64134628
Alpaugh,Tulare,1580,93201,35.856859,-119.507526,33.92735,-118.41591,147.125261
Lewiston,Trinity,1574,96052,40.738391,-122.821086,33.92735,-118.41591,529.5578513
Willow Creek,Humboldt,1568,95573,40.914926,-123.668723,33.92735,-118.41591,562.6229827
Bradley,Monterey,1568,93426,35.848621,-120.938911,33.92735,-118.41591,195.3056634
Hopland,Mendocino,1560,95449,38.936137,-123.119445,33.92735,-118.41591,434.060508
Inyokern,Kern,1559,93527,36.119622,-118.177124,33.92735,-118.41591,152.2355919
Big Sur,Monterey,1545,93920,36.092975,-121.549826,33.92735,-118.41591,232.2633887
Warner Springs,San Diego,1543,92086,33.323221,-116.66593,33.92735,-118.41591,109.1051637
Dunnigan,Yolo,1540,95937,38.885244,-121.999039,33.92735,-118.41591,396.6279938
Lebec,Kern,1532,93243,34.7727,-118.791975,33.92735,-118.41591,62.28949839
Mcarthur,Shasta,1530,96056,41.028176,-121.308316,33.92735,-118.41591,516.0807846
Creston,San Luis Obispo,1503,93432,35.486805,-120.485271,33.92735,-118.41591,159.6154012
Isleton,Sacramento,1489,95641,38.140366,-121.589783,33.92735,-118.41591,341.1625193
Smartville,Yuba,1488,95977,39.176595,-121.291692,33.92735,-118.41591,396.6202548
Byron,Contra Costa,1475,94514,37.826372,-121.622546,33.92735,-118.41591,324.0259497
Boulevard,San Diego,1472,91905,32.67807,-116.306851,33.92735,-118.41591,149.4314663
Pala,San Diego,1464,92059,33.376467,-117.066121,33.92735,-118.41591,86.55292286
Mountain Center,Riverside,1462,92561,33.637201,-116.627212,33.92735,-118.41591,104.7688857
Carlotta,Humboldt,1437,95528,40.496975,-123.930822,33.92735,-118.41591,546.3225563
Coleville,Mono,1433,96107,38.425282,-119.475743,33.92735,-118.41591,316.6801151
Yosemite National Park,Mariposa,1417,95389,37.626489,-119.68128,33.92735,-118.41591,265.5214996
Loleta,Humboldt,1416,95551,40.674987,-124.231146,33.92735,-118.41591,565.5422507
Blairsden-Graeagle,Plumas,1401,96103,39.805588,-120.665978,33.92735,-118.41591,425.1763141
Blue Lake,Humboldt,1401,95525,40.92143,-123.815266,33.92735,-118.41591,567.1536035
Boonville,Mendocino,1388,95415,39.015251,-123.370756,33.92735,-118.41591,446.8215792
Maxwell,Colusa,1386,95955,39.294516,-122.201715,33.92735,-118.41591,426.5005571
Raymond,Madera,1377,93653,37.248335,-119.944935,33.92735,-118.41591,245.2660317
White Water,Riverside,1372,92282,33.983697,-116.691398,33.92735,-118.41591,99.01491419
Fall River Mills,Shasta,1368,96028,41.006417,-121.480741,33.92735,-118.41591,517.6442146
Berry Creek,Butte,1359,95916,39.665539,-121.351955,33.92735,-118.41591,428.8469724
Lakehead,Shasta,1358,96051,40.9332,-122.382788,33.92735,-118.41591,531.1466347
Cobb,Lake,1350,95426,38.833425,-122.734061,33.92735,-118.41591,415.7783428
Shandon,San Luis Obispo,1349,93461,35.652911,-120.266428,33.92735,-118.41591,159.0347457
Stratford,Kings,1337,93266,36.145394,-119.867288,33.92735,-118.41591,174.0420299
Oregon House,Yuba,1324,95962,39.344757,-121.264517,33.92735,-118.41591,406.6350933
Clarksburg,Yolo,1321,95612,38.384706,-121.578722,33.92735,-118.41591,355.255579
Rancho Santa Fe,San Diego,1313,92091,33.015927,-117.243517,33.92735,-118.41591,92.46325547
Earp,San Bernardino,1312,92242,34.163216,-114.319121,33.92735,-118.41591,235.3443554
Crows Landing,Stanislaus,1305,95313,37.431392,-121.051294,33.92735,-118.41591,283.9826476
Hickman,Stanislaus,1299,95323,37.608303,-120.685156,33.92735,-118.41591,284.6511751
West Point,Calaveras,1289,95255,38.419902,-120.474458,33.92735,-118.41591,331.2863365
Niland,Imperial,1281,92257,33.294274,-115.296227,33.92735,-118.41591,184.9547722
Point Arena,Mendocino,1280,95468,38.918887,-123.605684,33.92735,-118.41591,449.965342
Cantua Creek,Fresno,1280,93608,36.492478,-120.355526,33.92735,-118.41591,208.5394228
Thornton,San Joaquin,1262,95686,38.157794,-121.520223,33.92735,-118.41591,340.1829582
Klamath,Del Norte,1251,95548,41.593204,-124.045992,33.92735,-118.41591,612.7784697
Mi Wuk Village,Tuolumne,1251,95346,38.065529,-120.170699,33.92735,-118.41591,302.5850889
Sheridan,Placer,1246,95681,38.995557,-121.353545,33.92735,-118.41591,386.7108639
Kettleman City,Kings,1246,93239,36.04719,-119.990217,33.92735,-118.41591,171.624315
Mccloud,Siskiyou,1235,96057,41.268682,-121.93094,33.92735,-118.41591,542.957184
Palermo,Butte,1231,95968,39.435211,-121.551925,33.92735,-118.41591,418.7237496
Woodacre,Marin,1228,94973,38.012697,-122.639598,33.92735,-118.41591,368.3478109
Ross,Marin,1219,94957,37.963111,-122.563588,33.92735,-118.41591,363.039559
Tranquillity,Fresno,1219,93668,36.650275,-120.284085,33.92735,-118.41591,215.8474149
El Nido,Merced,1203,95317,37.12738,-120.506433,33.92735,-118.41591,250.6567948
Grizzly Flats,El Dorado,1195,95636,38.621278,-120.383217,33.92735,-118.41591,342.6732184
Bella Vista,Shasta,1191,96008,40.704869,-122.120038,33.92735,-118.41591,511.0166019
Dorris,Siskiyou,1184,96023,41.928894,-121.906809,33.92735,-118.41591,585.1541419
Potrero,San Diego,1182,91963,32.626231,-116.61002,33.92735,-118.41591,137.8507788
Moraga,Contra Costa,1178,94575,37.840961,-122.109502,33.92735,-118.41591,340.6925256
Llano,Los Angeles,1164,93544,34.495537,-117.756645,33.92735,-118.41591,54.46523603
Mountain Ranch,Calaveras,1159,95246,38.227003,-120.514561,33.92735,-118.41591,319.6733783
Point Reyes Station,Marin,1146,94956,38.045857,-122.861209,33.92735,-118.41591,378.1084919
Olympic Valley,Placer,1145,96146,39.198047,-120.237787,33.92735,-118.41591,378.3244714
The Sea Ranch,Sonoma,1134,95497,38.743039,-123.476418,33.92735,-118.41591,436.2471733
Bolinas,Marin,1127,94924,37.943087,-122.72379,33.92735,-118.41591,367.8089203
Monte Rio,Sonoma,1124,95462,38.462142,-123.018384,33.92735,-118.41591,405.3157779
Ballico,Merced,1110,95303,37.470288,-120.671083,33.92735,-118.41591,275.8350566
Forest Falls,San Bernardino,1077,92339,34.093661,-116.936222,33.92735,-118.41591,85.61384286
Bodega,Sonoma,1075,94922,38.344946,-122.948799,33.92735,-118.41591,396.7172526
Moss Landing,Monterey,1074,95039,36.82815,-121.776583,33.92735,-118.41591,275.9616366
Hydesville,Humboldt,1063,95547,40.557483,-124.081215,33.92735,-118.41591,554.3369803
Greenwood,El Dorado,1058,95635,38.910748,-120.908621,33.92735,-118.41591,371.5190018
Millville,Shasta,1042,96062,40.580119,-122.041403,33.92735,-118.41591,501.4531266
Cedar Glen,San Bernardino,1042,92321,34.253816,-117.150891,33.92735,-118.41591,75.89793457
Wallace,Calaveras,1035,95254,38.19262,-120.95782,33.92735,-118.41591,327.4313265
Biola,Fresno,1035,93606,36.803197,-120.018564,33.92735,-118.41591,218.481678
Snelling,Merced,1024,95369,37.531889,-120.437413,33.92735,-118.41591,273.9175927
March Air Force Base,Riverside,1021,92518,33.889103,-117.278368,33.92735,-118.41591,65.35297443
Oro Grande,San Bernardino,1019,92368,34.650629,-117.321326,33.92735,-118.41591,80.09549001
Albion,Mendocino,997,95410,39.199469,-123.702253,33.92735,-118.41591,468.0201554
Dulzura,San Diego,986,91917,32.608865,-116.71966,33.92735,-118.41591,133.9350594
Philo,Mendocino,976,95466,39.081822,-123.504872,33.92735,-118.41591,454.9694579
Brownsville,Yuba,971,95919,39.432882,-121.261143,33.92735,-118.41591,412.1504244
Hornbrook,Siskiyou,963,96044,41.93095,-122.510081,33.92735,-118.41591,596.7540258
Whitethorn,Humboldt,963,95589,40.055796,-123.969269,33.92735,-118.41591,523.0084459
Carnelian Bay,Placer,953,96140,39.232027,-120.096413,33.92735,-118.41591,378.5752879
Los Angeles,Los Angeles,953,90073,34.054534,-118.457025,33.92735,-118.41591,9.107501091
Vallejo,Solano,952,94592,38.08973,-122.277394,33.92735,-118.41591,359.8721718
Fiddletown,Amador,940,95629,38.516474,-120.688517,33.92735,-118.41591,341.7774811
Forest Ranch,Butte,934,95942,40.01945,-121.566635,33.92735,-118.41591,455.8392564
Nicolaus,Sutter,932,95659,38.84223,-121.572164,33.92735,-118.41591,382.6243124
Kneeland,Humboldt,929,95549,40.666691,-123.908396,33.92735,-118.41591,555.2542028
Markleeville,Alpine,926,96120,38.743384,-119.867624,33.92735,-118.41591,342.7776755
Pescadero,San Mateo,926,94060,37.247137,-122.273493,33.92735,-118.41591,315.8623024
Los Olivos,Santa Barbara,922,93441,34.770605,-119.985205,33.92735,-118.41591,106.9222426
Lagunitas,Marin,920,94938,38.029069,-122.726523,33.92735,-118.41591,372.3307027
Kenwood,Sonoma,919,95452,38.425523,-122.53521,33.92735,-118.41591,386.8027106
Alta,Placer,915,95701,39.226549,-120.767022,33.92735,-118.41591,389.0592502
Happy Camp,Siskiyou,904,96039,41.687905,-123.483269,33.92735,-118.41591,603.709533
Tahoma,El Dorado,885,96142,38.997166,-120.129625,33.92735,-118.41591,363.3711334
Meridian,Sutter,879,95957,39.060921,-121.827155,33.92735,-118.41591,402.4806113
Glenn,Glenn,871,95943,39.584807,-122.032297,33.92735,-118.41591,439.5400903
Five Points,Fresno,871,93624,36.378434,-120.116591,33.92735,-118.41591,194.9066292
Ducor,Tulare,871,93218,35.860883,-119.03614,33.92735,-118.41591,138.287822
Sultana,Tulare,866,93666,36.547067,-119.335641,33.92735,-118.41591,188.4983896
Oakland,Alameda,855,94613,37.780853,-122.182845,33.92735,-118.41591,339.9842654
Jolon,Monterey,854,93928,36.038868,-121.244009,33.92735,-118.41591,216.8119373
Igo,Shasta,849,96047,40.471076,-122.660955,33.92735,-118.41591,509.2992699
Douglas City,Trinity,846,96024,40.546631,-122.880891,33.92735,-118.41591,519.4942409
Cedarville,Modoc,842,96104,41.506276,-120.143106,33.92735,-118.41591,532.6302678
Farmington,San Joaquin,840,95230,38.000494,-120.898152,33.92735,-118.41591,314.1019266
Littleriver,Mendocino,838,95456,39.258198,-123.76156,33.92735,-118.41591,473.1728704
Forest Knolls,Marin,837,94933,38.012599,-122.687478,33.92735,-118.41591,370.0664406
Camptonville,Yuba,831,95922,39.48834,-121.066908,33.92735,-118.41591,411.7157605
Applegate,Placer,831,95703,38.985882,-120.978665,33.92735,-118.41591,377.7700891
Sunol,Alameda,831,94586,37.57459,-121.853708,33.92735,-118.41591,317.559783
Caliente,Kern,814,93518,35.385111,-118.491168,33.92735,-118.41591,100.9203998
Doyle,Lassen,812,96109,40.019715,-120.099183,33.92735,-118.41591,431.510994
Bodega Bay,Sonoma,808,94923,38.339402,-123.034599,33.92735,-118.41591,399.501476
Midpines,Mariposa,802,95345,37.583767,-119.976728,33.92735,-118.41591,267.6368397
Oak Run,Shasta,800,96069,40.685336,-122.016069,33.92735,-118.41591,507.5371561
Avila Beach,San Luis Obispo,795,93424,35.185911,-120.731793,33.92735,-118.41591,158.0469471
Mcclellan,Sacramento,789,95652,38.662983,-121.401113,33.92735,-118.41591,367.3433988
New Cuyama,Santa Barbara,786,93254,34.966867,-119.810433,33.92735,-118.41591,107.2199059
Santa Ysabel,San Diego,786,92070,33.14709,-116.717453,33.92735,-118.41591,111.8059212
Forbestown,Butte,775,95941,39.516314,-121.250935,33.92735,-118.41591,417.2407978
Rio Oso,Sutter,767,95674,38.954159,-121.48187,33.92735,-118.41591,387.2232752
Miranda,Humboldt,767,95553,40.244215,-123.888871,33.92735,-118.41591,530.8646856
San Ardo,Monterey,767,93450,36.085423,-120.818522,33.92735,-118.41591,201.9971232
Scotia,Humboldt,762,95565,40.455189,-124.015148,33.92735,-118.41591,546.5712562
Traver,Tulare,754,93673,36.452697,-119.482343,33.92735,-118.41591,184.7771934
Bangor,Butte,752,95914,39.449004,-121.330521,33.92735,-118.41591,414.6559927
South Dos Palos,Merced,752,93665,36.960108,-120.64806,33.92735,-118.41591,244.56791
Mad River,Trinity,750,95552,40.202543,-123.228609,33.92735,-118.41591,508.664248
Inverness,Marin,742,94937,38.11649,-122.930351,33.92735,-118.41591,384.2541662
Daggett,San Bernardino,737,92327,34.863585,-116.862059,33.92735,-118.41591,109.8081864
Sacramento,Sacramento,734,95830,38.490508,-121.284171,33.92735,-118.41591,353.8415034
Grenada,Siskiyou,732,96038,41.6071,-122.545715,33.92735,-118.41591,576.9984038
Paicines,San Benito,731,95043,36.525703,-120.952122,33.92735,-118.41591,229.8359181
Junction City,Trinity,730,96048,40.829014,-123.022859,33.92735,-118.41591,540.1607233
Fulton,Sonoma,728,95439,38.493179,-122.777546,33.92735,-118.41591,398.613184
Lytle Creek,San Bernardino,722,92358,34.259272,-117.520971,33.92735,-118.41591,56.16746072
Lockwood,Monterey,709,93932,35.989792,-121.055933,33.92735,-118.41591,206.7357406
Elk,Mendocino,706,95432,39.108252,-123.645121,33.92735,-118.41591,461.2337961
Gasquet,Del Norte,705,95543,41.870812,-123.86277,33.92735,-118.41591,624.3612772
Graton,Sonoma,705,95444,38.433216,-122.869001,33.92735,-118.41591,398.5550393
Courtland,Sacramento,704,95615,38.318624,-121.554752,33.92735,-118.41591,350.6647702
Whitmore,Shasta,703,96096,40.654093,-121.822848,33.92735,-118.41591,501.5077469
Hinkley,San Bernardino,702,92347,34.957406,-117.219606,33.92735,-118.41591,98.65253625
Stinson Beach,Marin,698,94970,37.914513,-122.64689,33.92735,-118.41591,363.5297736
Ranchita,San Diego,693,92066,33.219365,-116.535247,33.92735,-118.41591,118.92702
Sunset Beach,Orange,692,90742,33.716666,-118.076906,33.92735,-118.41591,24.32741532
Onyx,Kern,691,93255,35.67733,-118.101417,33.92735,-118.41591,122.3521088
Standish,Lassen,685,96128,40.358768,-120.408154,33.92735,-118.41591,458.1671935
North San Juan,Nevada,684,95960,39.403217,-121.034486,33.92735,-118.41591,405.6054569
Davenport,Santa Cruz,681,95017,37.114335,-122.237162,33.92735,-118.41591,307.9486298
Kernville,Kern,673,93238,35.729116,-118.391888,33.92735,-118.41591,124.6309282
Cedarpines Park,San Bernardino,672,92322,34.254361,-117.326453,33.92735,-118.41591,66.3772357
Salyer,Trinity,665,95563,40.87733,-123.499144,33.92735,-118.41591,555.7081413
Pleasant Grove,Sutter,664,95668,38.833555,-121.498099,33.92735,-118.41591,380.2198538
Nicasio,Marin,658,94946,38.082829,-122.671527,33.92735,-118.41591,373.1482852
Pope Valley,Napa,658,94567,38.706906,-122.393997,33.92735,-118.41591,397.946111
San Simeon,San Luis Obispo,658,93452,35.746484,-121.223355,33.92735,-118.41591,203.0460618
Angelus Oaks,San Bernardino,657,92305,34.141671,-116.817981,33.92735,-118.41591,92.78262429
Catheys Valley,Mariposa,654,95306,37.36553,-120.160164,33.92735,-118.41591,257.2116504
Clements,San Joaquin,654,95227,38.210353,-121.051256,33.92735,-118.41591,330.8198806
Manchester,Mendocino,641,95459,38.97664,-123.604802,33.92735,-118.41591,452.934215
Bridgeport,Mono,641,93517,38.281108,-119.384449,33.92735,-118.41591,305.9575748
Westley,Stanislaus,636,95387,37.519349,-121.296545,33.92735,-118.41591,296.4263809
San Diego,San Diego,635,92135,32.697543,-117.192775,33.92735,-118.41591,110.6058049
Independence,Inyo,629,93526,36.823834,-118.281246,33.92735,-118.41591,200.4860856
Vallecito,Calaveras,625,95251,38.078402,-120.443443,33.92735,-118.41591,308.6951922
Lotus,El Dorado,624,95651,38.81782,-120.929272,33.92735,-118.41591,366.0341307
Trinity Center,Trinity,618,96091,41.034706,-122.791321,33.92735,-118.41591,546.9267359
Princeton,Colusa,616,95970,39.398424,-122.060946,33.92735,-118.41591,428.9693624
Guatay,San Diego,613,91931,32.846363,-116.557729,33.92735,-118.41591,130.7896671
Elk Creek,Glenn,605,95939,39.571982,-122.580827,33.92735,-118.41591,453.4171144
Orleans,Humboldt,598,95556,41.324926,-123.600968,33.92735,-118.41591,584.9409023
Trabuco Canyon,Orange,584,92678,33.680226,-117.526144,33.92735,-118.41591,53.91960624
Madison,Yolo,581,95653,38.697634,-121.977571,33.92735,-118.41591,384.9773882
Tahoe Vista,Placer,580,96148,39.24905,-120.060428,33.92735,-118.41591,379.2285666
Rio Nido,Sonoma,573,95471,38.524077,-122.968774,33.92735,-118.41591,406.8418582
Baker,San Bernardino,572,92309,35.332155,-116.038586,33.92735,-118.41591,166.5685084
River Pines,Amador,566,95675,38.5447,-120.7405,33.92735,-118.41591,344.6616617
North Palm Springs,Riverside,559,92258,33.915839,-116.559873,33.92735,-118.41591,106.5292252
Macdoel,Siskiyou,553,96058,41.727044,-121.907369,33.92735,-118.41591,572.0719047
San Lucas,Monterey,551,93954,36.133362,-120.928512,33.92735,-118.41591,208.6291868
Hathaway Pines,Calaveras,548,95233,38.161669,-120.368144,33.92735,-118.41591,312.5424771
Shasta,Shasta,544,96087,40.619998,-122.643642,33.92735,-118.41591,517.9359247
Manton,Tehama,542,96059,40.421637,-121.833052,33.92735,-118.41591,486.964122
Bass Lake,Madera,541,93604,37.344149,-119.422139,33.92735,-118.41591,243.0011497
Raisin,Fresno,540,93652,36.595012,-119.904577,33.92735,-118.41591,202.7591545
Round Mountain,Shasta,536,96084,40.844643,-121.969849,33.92735,-118.41591,516.6546802
Glendale,Los Angeles,529,91210,34.144557,-118.256507,33.92735,-118.41591,17.58375491
Caspar,Mendocino,523,95420,39.366146,-123.804985,33.92735,-118.41591,480.3706691
Dutch Flat,Placer,522,95714,39.200502,-120.840726,33.92735,-118.41591,388.7672727
San Diego,San Diego,518,92147,32.72488,-117.219962,33.92735,-118.41591,108.1404126
Loma Mar,San Mateo,511,94021,37.270838,-122.280738,33.92735,-118.41591,317.311994
Myers Flat,Humboldt,508,95554,40.296412,-123.777178,33.92735,-118.41591,530.3289016
Burnt Ranch,Trinity,499,95527,41.012258,-123.387964,33.92735,-118.41591,560.6820967
French Gulch,Shasta,490,96033,40.781633,-122.584149,33.92735,-118.41591,526.406582
Tehama,Tehama,481,96090,40.021716,-122.127821,33.92735,-118.41591,468.665714
Fellows,Kern,471,93224,35.228199,-119.569304,33.92735,-118.41591,111.3992021
Tres Pinos,San Benito,459,95075,36.779046,-121.142439,33.92735,-118.41591,250.099203
Calpine,Sierra,458,96124,39.641871,-120.445265,33.92735,-118.41591,410.8995721
Leggett,Mendocino,457,95585,39.844682,-123.656929,33.92735,-118.41591,501.3593812
San Diego,San Diego,456,92155,32.674984,-117.161726,33.92735,-118.41591,112.9594608
Pioneertown,San Bernardino,455,92268,34.222079,-116.564222,33.92735,-118.41591,108.0259023
Death Valley,Inyo,438,92328,36.597809,-116.827404,33.92735,-118.41591,205.3335697
Orick,Humboldt,437,95555,41.241807,-123.913425,33.92735,-118.41591,588.5472134
Mount Hermon,Santa Cruz,436,95041,37.050419,-122.057816,33.92735,-118.41591,297.8242389
San Francisco,San Francisco,429,94104,37.791409,-122.40213,33.92735,-118.41591,348.2941843
Cassel,Shasta,424,96016,40.894269,-121.50702,33.92735,-118.41591,510.8342895
Petrolia,Humboldt,416,95558,40.298264,-124.243071,33.92735,-118.41591,545.1277569
Vernalis,San Joaquin,415,95385,37.61074,-121.24733,33.92735,-118.41591,300.2231153
Stonyford,Colusa,414,95979,39.302035,-122.51116,33.92735,-118.41591,435.6428733
Spreckels,Monterey,414,93962,36.624716,-121.646487,33.92735,-118.41591,260.8968851
Summerland,Santa Barbara,410,93067,34.421964,-119.593483,33.92735,-118.41591,75.57192167
Beckwourth,Plumas,408,96129,39.78927,-120.357278,33.92735,-118.41591,419.4145874
Wilseyville,Calaveras,407,95257,38.379703,-120.448,33.92735,-118.41591,328.1773409
San Geronimo,Marin,404,94963,38.013719,-122.67012,33.92735,-118.41591,369.4983395
Homewood,Placer,403,96141,39.067274,-120.177798,33.92735,-118.41591,368.742471
Montgomery Creek,Shasta,403,96065,40.87908,-121.893264,33.92735,-118.41591,517.2797421
Annapolis,Sonoma,397,95412,38.713421,-123.349777,33.92735,-118.41591,430.1855659
Fawnskin,San Bernardino,392,92333,34.270601,-116.949309,33.92735,-118.41591,87.29000717
June Lake,Mono,390,93529,37.815507,-119.095647,33.92735,-118.41591,271.616247
Adin,Modoc,389,96006,41.135964,-120.840063,33.92735,-118.41591,515.9627945
Capay,Yolo,389,95607,38.830371,-122.126946,33.92735,-118.41591,397.0422837
Samoa,Humboldt,389,95564,40.79088,-124.204748,33.92735,-118.41591,571.2206233
Diablo,Contra Costa,384,94528,37.845601,-121.950612,33.92735,-118.41591,335.6195336
Klamath River,Siskiyou,381,96050,41.89888,-122.888552,33.92735,-118.41591,602.7400094
Taylorsville,Plumas,380,95983,40.077912,-120.707315,33.92735,-118.41591,443.8004134
Shaver Lake,Fresno,380,93664,37.129364,-119.219563,33.92735,-118.41591,226.0448548
Burson,Calaveras,378,95225,38.193762,-120.875928,33.92735,-118.41591,325.5435569
Witter Springs,Lake,377,95493,39.184728,-122.969574,33.92735,-118.41591,442.8466926
Knightsen,Contra Costa,377,94548,37.974295,-121.651441,33.92735,-118.41591,333.3707234
Brookdale,Santa Cruz,374,95007,37.104964,-122.106903,33.92735,-118.41591,302.4133304
Chilcoot,Plumas,372,96105,39.753579,-120.054995,33.92735,-118.41591,413.0496614
Redcrest,Humboldt,371,95569,40.377299,-123.854169,33.92735,-118.41591,537.2409048
Mineral,Tehama,359,96063,40.370467,-121.606306,33.92735,-118.41591,479.0123415
Milford,Lassen,358,96121,40.164393,-120.380042,33.92735,-118.41591,444.7827011
Valyermo,Los Angeles,357,93563,34.402521,-117.766066,33.92735,-118.41591,49.63214563
Branscomb,Mendocino,356,95417,39.68979,-123.610022,33.92735,-118.41591,491.3150385
Litchfield,Lassen,355,96117,40.533462,-120.235356,33.92735,-118.41591,467.7522083
Paynes Creek,Tehama,350,96075,40.343242,-121.852205,33.92735,-118.41591,482.4202752
Grimes,Colusa,350,95950,39.043447,-121.918099,33.92735,-118.41591,403.8353018
Meadow Valley,Plumas,348,95956,39.838288,-121.134235,33.92735,-118.41591,435.5631617
Vina,Tehama,343,96092,39.96332,-122.017242,33.92735,-118.41591,462.416066
Keene,Kern,338,93531,35.221906,-118.582566,33.92735,-118.41591,90.04265215
Hood,Sacramento,335,95639,38.38903,-121.500428,33.92735,-118.41591,353.3639252
Benton,Mono,328,93512,37.891866,-118.554569,33.92735,-118.41591,274.3251458
Twain,Plumas,327,95984,40.040955,-121.122652,33.92735,-118.41591,448.4627436
Jacumba,San Diego,323,91934,32.648992,-116.152565,33.92735,-118.41591,157.9274388
Bieber,Lassen,321,96009,41.05604,-121.020802,33.92735,-118.41591,513.3063581
Canby,Modoc,320,96015,41.487278,-120.912416,33.92735,-118.41591,540.3805594
Lookout,Modoc,319,96054,41.238956,-121.03925,33.92735,-118.41591,525.6944708
Butte City,Glenn,315,95920,39.449794,-121.936372,33.92735,-118.41591,428.8913854
Lemon Cove,Tulare,308,93244,36.488656,-118.998043,33.92735,-118.41591,180.186414
Mt Baldy,Los Angeles,307,91759,34.263636,-117.69947,33.92735,-118.41591,47.1696333
Weott,Humboldt,304,95571,40.322772,-123.920622,33.92735,-118.41591,536.23725
Vinton,Plumas,301,96135,39.808651,-120.205672,33.92735,-118.41591,418.6483924
Sacramento,Sacramento,300,95837,38.693765,-121.598941,33.92735,-118.41591,374.3172475
Finley,Lake,299,95435,39.007213,-122.86951,33.92735,-118.41591,429.7749512
Olancha,Inyo,293,93549,36.212203,-117.948532,33.92735,-118.41591,160.2361231
Weimar,Placer,289,95736,39.038809,-120.97753,33.92735,-118.41591,381.1204519
Marshall,Marin,287,94940,38.17857,-122.88319,33.92735,-118.41591,385.7239971
San Diego,San Diego,285,92134,32.724223,-117.146587,33.92735,-118.41591,110.9327148
Platina,Shasta,284,96076,40.391542,-122.937883,33.92735,-118.41591,511.713933
Greenview,Siskiyou,279,96037,41.544675,-122.934665,33.92735,-118.41591,581.743331
Gazelle,Siskiyou,279,96034,41.428284,-122.609441,33.92735,-118.41591,567.1477438
Seiad Valley,Siskiyou,278,96086,41.92416,-123.260782,33.92735,-118.41591,612.7618341
Challenge,Yuba,276,95925,39.484108,-121.192649,33.92735,-118.41591,413.9806884
Cressey,Merced,276,95312,37.421071,-120.652983,33.92735,-118.41591,272.3635743
Clio,Plumas,274,96106,39.736644,-120.543744,33.92735,-118.41591,418.686748
Somes Bar,Siskiyou,274,95568,41.452689,-123.464813,33.92735,-118.41591,589.0430018
Guinda,Yolo,268,95637,38.834145,-122.236936,33.92735,-118.41591,400.4768687
Alderpoint,Humboldt,262,95511,40.141856,-123.681921,33.92735,-118.41591,518.7084083
Dobbins,Yuba,261,95935,39.379346,-121.19231,33.92735,-118.41591,407.2970774
California Hot Springs,Tulare,256,93207,35.889831,-118.630592,33.92735,-118.41591,136.2846833
Dillon Beach,Marin,254,94929,38.25242,-122.962717,33.92735,-118.41591,392.4128458
Fields Landing,Humboldt,251,95537,40.726752,-124.217378,33.92735,-118.41591,568.0099863
Brooks,Yolo,249,95606,38.756184,-122.195438,33.92735,-118.41591,394.7417262
Helm,Fresno,247,93627,36.474404,-120.061497,33.92735,-118.41591,199.2073154
Stirling City,Butte,245,95978,39.875599,-121.536315,33.92735,-118.41591,446.0762656
Lee Vining,Mono,244,93541,37.988074,-119.114386,33.92735,-118.41591,283.5761221
Wishon,Madera,238,93669,37.290563,-119.548406,33.92735,-118.41591,241.1782826
Surfside,Orange,236,90743,33.726516,-118.090327,33.92735,-118.41591,23.30106571
Rimforest,San Bernardino,234,92378,34.226083,-117.225931,33.92735,-118.41591,71.23644844
Soda Springs,Nevada,231,95728,39.319332,-120.399379,33.92735,-118.41591,388.8321097
Jenner,Sonoma,227,95450,38.501363,-123.170879,33.92735,-118.41591,412.7848756
Desert Center,Riverside,227,92239,33.762149,-115.4661,33.92735,-118.41591,169.8365072
Comptche,Mendocino,226,95427,39.244183,-123.563531,33.92735,-118.41591,465.6192389
Tomales,Marin,226,94971,38.231547,-122.928226,33.92735,-118.41591,390.0887037
Posey,Tulare,226,93260,35.817247,-118.669124,33.92735,-118.41591,131.5064627
Fort Bidwell,Modoc,224,96112,41.858844,-120.104998,33.92735,-118.41591,556.2595153
Miramonte,Fresno,223,93641,36.69718,-119.022995,33.92735,-118.41591,194.6205004
Green Valley Lake,San Bernardino,222,92341,34.236643,-117.062838,33.92735,-118.41591,80.4105858
El Portal,Mariposa,220,95318,37.653372,-119.784117,33.92735,-118.41591,268.8988681
Skyforest,San Bernardino,216,92385,34.21474,-117.192326,33.92735,-118.41591,72.86761713
Nubieber,Lassen,204,96068,41.118402,-121.207564,33.92735,-118.41591,520.3449315
Mc Kittrick,Kern,202,93251,35.335636,-119.758248,33.92735,-118.41591,123.7891661
Big Bend,Shasta,199,96011,41.051216,-121.984492,33.92735,-118.41591,530.1021672
Big Creek,Fresno,198,93605,37.203158,-119.249243,33.92735,-118.41591,231.3762302
Bridgeville,Humboldt,196,95526,40.459048,-123.673177,33.92735,-118.41591,536.4181884
Glenhaven,Lake,193,95443,39.054011,-122.751253,33.92735,-118.41591,428.6554143
Yolo,Yolo,183,95697,38.732368,-121.810263,33.92735,-118.41591,382.3258021
Port Costa,Contra Costa,180,94569,38.044258,-122.198765,33.92735,-118.41591,354.7601693
Westport,Mendocino,179,95488,39.683707,-123.741609,33.92735,-118.41591,495.2737314
Gold Run,Placer,176,95717,39.144526,-120.852575,33.92735,-118.41591,385.3857447
Badger,Tulare,175,93603,36.622507,-118.957187,33.92735,-118.41591,188.9048948
Likely,Modoc,172,96116,41.258361,-120.372343,33.92735,-118.41591,518.2372573
Yorkville,Mendocino,171,95494,38.889651,-123.337821,33.92735,-118.41591,439.0150754
San Gregorio,San Mateo,170,94074,37.331714,-122.341466,33.92735,-118.41591,322.6587592
Tecopa,Inyo,168,92389,35.900961,-116.186357,33.92735,-118.41591,186.0681661
Flournoy,Tehama,167,96029,39.94026,-122.4892,33.92735,-118.41591,472.8144053
Avery,Calaveras,167,95224,38.231324,-120.322688,33.92735,-118.41591,316.1797022
Palomar Mountain,San Diego,166,92060,33.346808,-116.853215,33.92735,-118.41591,98.54044116
Edwards,Kern,165,93524,34.931987,-117.907127,33.92735,-118.41591,75.30657236
Paskenta,Tehama,164,96074,39.884652,-122.586513,33.92735,-118.41591,472.0758652
Eldridge,Sonoma,161,95431,38.348343,-122.517056,33.92735,-118.41591,381.9851798
Glencoe,Calaveras,161,95232,38.355338,-120.594018,33.92735,-118.41591,329.5221719
Downieville,Sierra,158,95936,39.605383,-120.811013,33.92735,-118.41591,414.503319
Verdugo City,Los Angeles,158,91046,34.211452,-118.241036,33.92735,-118.41591,22.05755186
Long Barn,Tuolumne,153,95335,38.124887,-120.093146,33.92735,-118.41591,305.0990605
Amador City,Amador,151,95601,38.426699,-120.825717,33.92735,-118.41591,339.009467
Zamora,Yolo,148,95698,38.816357,-121.91077,33.92735,-118.41591,390.0915355
O Neals,Madera,148,93645,37.182359,-119.64145,33.92735,-118.41591,235.4588773
Crescent Mills,Plumas,146,95934,40.060074,-120.907922,33.92735,-118.41591,445.9094874
San Francisco,San Mateo,146,94128,37.626411,-122.385757,33.92735,-118.41591,339.1711065
Casmalia,Santa Barbara,144,93429,34.867662,-120.539904,33.92735,-118.41591,137.5627123
Tupman,Kern,144,93276,35.299176,-119.358368,33.92735,-118.41591,109.0009182
Port Hueneme Cbc Base,Ventura,144,93043,34.170854,-119.202409,33.92735,-118.41591,48.11742023
Castella,Shasta,140,96017,41.076875,-122.253652,33.92735,-118.41591,537.3318621
Blocksburg,Humboldt,140,95514,40.294713,-123.653473,33.92735,-118.41591,526.4707579
Zenia,Trinity,139,95595,40.123177,-123.446279,33.92735,-118.41591,510.4861786
Navarro,Mendocino,136,95463,39.186791,-123.558382,33.92735,-118.41591,462.3833623
Dunlap,Fresno,136,93621,36.789273,-119.140345,33.92735,-118.41591,202.1236434
Callahan,Siskiyou,135,96014,41.326646,-122.773654,33.92735,-118.41591,564.5224621
Forks Of Salmon,Siskiyou,133,96031,41.186066,-123.181796,33.92735,-118.41591,565.7680568
Long Beach,Los Angeles,133,90822,33.778436,-118.118648,33.92735,-118.41591,19.94118293
Mount Laguna,San Diego,130,91948,32.866646,-116.448325,33.92735,-118.41591,135.244257
Topaz,Mono,126,96133,38.620964,-119.505184,33.92735,-118.41591,330.2701903
Sierra City,Sierra,126,96125,39.602711,-120.63615,33.92735,-118.41591,411.3348192
Eagleville,Modoc,126,96110,41.299883,-120.078511,33.92735,-118.41591,517.980594
Los Angeles,Los Angeles,126,90071,34.052876,-118.254943,33.92735,-118.41591,12.67277884
Randsburg,Kern,125,93554,35.413944,-117.764333,33.92735,-118.41591,109.2995688
Hat Creek,Shasta,124,96040,40.793535,-121.438607,33.92735,-118.41591,503.0577067
Alleghany,Sierra,123,95910,39.491126,-120.817232,33.92735,-118.41591,407.1699017
Olema,Marin,123,94950,38.024885,-122.759933,33.92735,-118.41591,373.3281528
Big Bar,Trinity,122,96010,40.91378,-123.307421,33.92735,-118.41591,552.6776637
Glennville,Kern,121,93226,35.735652,-118.738373,33.92735,-118.41591,126.4080722
Ocotillo,Imperial,121,92259,32.737705,-115.9322,33.92735,-118.41591,165.4367188
Johannesburg,Kern,119,93528,35.371604,-117.643321,33.92735,-118.41591,109.1390762
Honeydew,Humboldt,118,95545,40.280389,-124.06367,33.92735,-118.41591,538.3855511
Point Mugu Nawc,Ventura,118,93042,33.255655,-119.503588,33.92735,-118.41591,78.01064933
Dos Rios,Mendocino,116,95429,39.72093,-123.300262,33.92735,-118.41591,483.2519078
Lake City,Modoc,115,96115,41.70183,-120.134337,33.92735,-118.41591,545.8420874
Hyampom,Trinity,115,96046,40.588772,-123.434201,33.92735,-118.41591,536.9937508
Trona,San Bernardino,115,93592,35.852815,-117.224709,33.92735,-118.41591,149.3419404
Fish Camp,Mariposa,114,93623,37.494877,-119.64428,33.92735,-118.41591,256.2110451
Palo Verde,Imperial,112,92266,33.345027,-114.915942,33.92735,-118.41591,205.5256924
Rail Road Flat,Calaveras,106,95248,38.317709,-120.461112,33.92735,-118.41591,324.4303388
Camp Nelson,Tulare,106,93208,36.056587,-118.568462,33.92735,-118.41591,147.52718
Deer Park,Napa,105,94576,38.549422,-122.476382,33.92735,-118.41591,391.7136117
Emigrant Gap,Placer,104,95715,39.269964,-120.677611,33.92735,-118.41591,390.2538923
Kyburz,El Dorado,103,95720,38.76661,-120.223931,33.92735,-118.41591,349.5229943
Canyon,Contra Costa,103,94516,37.833901,-122.165034,33.92735,-118.41591,342.210059
Mount Hamilton,Santa Clara,102,95140,37.393503,-121.620009,33.92735,-118.41591,299.7866802
Darwin,Inyo,100,93522,36.316298,-117.592333,33.92735,-118.41591,171.6784773
Essex,San Bernardino,97,92332,34.912426,-115.342092,33.92735,-118.41591,188.1429512
Dardanelle,Tuolumne,95,95314,38.319132,-119.796208,33.92735,-118.41591,313.3919069
Korbel,Humboldt,94,95550,40.781218,-123.826383,33.92735,-118.41591,559.3863272
Redding,Shasta,90,96049,41.77186,-123.327375,33.92735,-118.41591,604.9963532
Sierraville,Sierra,85,96126,39.529719,-120.454168,33.92735,-118.41591,403.6050579
Auburn,Placer,85,95604,39.243304,-120.071406,33.92735,-118.41591,378.9908535
Coyote,Santa Clara,85,95013,37.215362,-121.741521,33.92735,-118.41591,294.4484152
Floriston,Nevada,83,96111,39.483479,-120.037661,33.92735,-118.41591,394.6634081
Hume,Fresno,83,93628,36.772382,-118.935666,33.92735,-118.41591,198.9549607
Davis Creek,Modoc,80,96108,41.770116,-120.431104,33.92735,-118.41591,553.4683209
Kirkwood,Alpine,80,95646,38.689261,-120.054975,33.92735,-118.41591,341.7857123
Hornitos,Mariposa,78,95325,37.466072,-120.225948,33.92735,-118.41591,265.0251688
Elmira,Solano,74,95625,38.358121,-121.911547,33.92735,-118.41591,363.3054653
Clipper Mills,Butte,72,95930,39.548599,-121.192105,33.92735,-118.41591,418.0890417
Woody,Kern,72,93287,35.757886,-118.988161,33.92735,-118.41591,130.7135055
Phillipsville,Humboldt,70,95559,40.183681,-123.745046,33.92735,-118.41591,523.0061032
Richvale,Butte,65,95974,39.480221,-121.838454,33.92735,-118.41591,428.320249
Edison,Kern,65,93220,35.403611,-118.756525,33.92735,-118.41591,103.931253
Madeline,Lassen,59,96119,41.022721,-120.523987,33.92735,-118.41591,504.1788042
Washington,Nevada,56,95986,39.342544,-120.770868,33.92735,-118.41591,396.662878
Rumsey,Yolo,56,95679,38.896313,-122.365365,33.92735,-118.41591,407.8811858
Scott Bar,Siskiyou,54,96085,41.740719,-123.077404,33.92735,-118.41591,597.1716902
Sequoia National Park,Tulare,53,93262,36.615624,-118.697574,33.92735,-118.41591,186.6196557
Piercy,Mendocino,51,95587,39.96327,-123.775737,33.92735,-118.41591,511.703858
Villa Grande,Sonoma,51,95486,38.474137,-123.024203,33.92735,-118.41591,406.1503576
Termo,Lassen,50,96132,40.914751,-120.402175,33.92735,-118.41591,495.4220752
Wendel,Lassen,44,96136,40.345753,-120.081154,33.92735,-118.41591,453.313927
Strawberry Valley,Yuba,39,95981,39.679398,-120.998619,33.92735,-118.41591,422.7290826
Rutherford,Napa,36,94573,38.458864,-122.428831,33.92735,-118.41591,385.1518469
Old Station,Shasta,31,96071,40.663854,-121.46106,33.92735,-118.41591,495.0657949
Canyondam,Plumas,28,95923,40.133728,-121.092693,33.92735,-118.41591,453.9465129
Goodyears Bar,Sierra,26,95944,39.495266,-120.943811,33.92735,-118.41591,409.7814927
Red Mountain,San Bernardino,26,93558,35.347928,-117.621393,33.92735,-118.41591,108.1604116
Ravendale,Lassen,25,96123,40.728194,-120.39628,33.92735,-118.41591,482.8024527
Valley Ford,Sonoma,25,94972,38.287346,-122.968556,33.92735,-118.41591,394.4295324
Amboy,San Bernardino,23,92304,34.541483,-115.644609,33.92735,-118.41591,164.0608982
Norden,Nevada,22,95724,39.311704,-120.328125,33.92735,-118.41591,387.2268932
Lakeshore,Fresno,22,93634,37.22358,-119.000834,33.92735,-118.41591,230.3524572
Mill Creek,Tehama,21,96061,40.338068,-121.47907,33.92735,-118.41591,474.4075186
Drytown,Amador,21,95699,38.436774,-120.857624,33.92735,-118.41591,340.354189
Universal City,Los Angeles,21,91608,34.138761,-118.350933,33.92735,-118.41591,15.08961671
Shoshone,Inyo,17,92384,36.007706,-116.178478,33.92735,-118.41591,191.7901047
Birds Landing,Solano,16,94512,38.134852,-121.834156,33.92735,-118.41591,348.145776
Twin Bridges,El Dorado,12,95735,38.840282,-120.150225,33.92735,-118.41591,353.2495265
Ryde,Sacramento,10,95680,38.240419,-121.587535,33.92735,-118.41591,346.9677983
Keeler,Inyo,10,93530,36.47583,-117.860116,33.92735,-118.41591,179.0476904
Duncans Mills,Sonoma,7,95430,38.461425,-123.047186,33.92735,-118.41591,406.297444
Nipton,San Bernardino,6,92364,35.34042,-115.426224,33.92735,-118.41591,196.2058371
Parker Dam,San Bernardino,6,92267,34.273755,-114.196525,33.92735,-118.41591,242.8296714
Strawberry,Tuolumne,5,95375,38.186595,-120.026235,33.92735,-118.41591,308.0387803
South Lake Tahoe,El Dorado,0,96155,38.762986,-120.087069,33.92735,-118.41591,347.1650024
Belden,Plumas,0,95915,40.006256,-121.158894,33.92735,-118.41591,446.8862113
Echo Lake,El Dorado,0,95721,38.843738,-120.072674,33.92735,-118.41591,352.3255231
Pinecrest,Tuolumne,0,95364,38.258394,-119.783024,33.92735,-118.41591,309.1466092
Big Oak Flat,Tuolumne,0,95305,37.794225,-120.26914,33.92735,-118.41591,286.9094197
Sheep Ranch,Calaveras,0,95250,38.237833,-120.428658,33.92735,-118.41591,318.6425041
Holt,San Joaquin,0,95234,37.925763,-121.528026,33.92735,-118.41591,326.8554496
Campo Seco,Calaveras,0,95226,38.228948,-120.856627,33.92735,-118.41591,327.287105
Richmond,Contra Costa,0,94850,37.902226,-122.317378,33.92735,-118.41591,351.1367408
Monterey,Monterey,0,93943,36.597004,-121.874136,33.92735,-118.41591,268.7396802
Kings Canyon National Pk,Tulare,0,93633,36.822163,-118.649328,33.92735,-118.41591,200.6587417
Cantil,Kern,0,93519,35.294349,-117.925785,33.92735,-118.41591,98.58206483
San Luis Obispo,San Luis Obispo,0,93410,35.3012,-120.660937,33.92735,-118.41591,159.2461267
Brandeis,Ventura,0,93064,34.247556,-118.70094,33.92735,-118.41591,27.51562398
Ludlow,San Bernardino,0,92338,34.782699,-116.190564,33.92735,-118.41591,140.1634959
Vidal,San Bernardino,0,92280,34.112956,-114.633391,33.92735,-118.41591,217.2142914
Bard,Imperial,0,92222,32.785826,-114.545506,33.92735,-118.41591,237.1156137
San Diego,San Diego,0,92132,32.713608,-117.172089,33.92735,-118.41591,110.5232204
Tecate,San Diego,0,91980,32.588866,-116.619172,33.92735,-118.41591,139.1726038
Woodland Hills,Los Angeles,0,91371,34.184616,-118.576125,33.92735,-118.41591,20.02330356
Long Beach,Los Angeles,0,90831,33.768334,-118.201636,33.92735,-118.41591,16.50702148
Carson,Los Angeles,0,90747,33.8629,-118.251318,33.92735,-118.41591,10.44843187
Torrance,Los Angeles,0,90506,33.884696,-118.329998,33.92735,-118.41591,5.746923258
Los Angeles,Los Angeles,0,90095,34.0712,-118.443523,33.92735,-118.41591,10.07493479
Los Angeles,Los Angeles,0,90079,34.040587,-118.255404,33.92735,-118.41591,12.08663664
